warehouse_code,name,location,city,country,manager,phone,email,capacity,current_stock,type,status,notes
WH-0001,Warehouse_0001,Loc_WH-0001_HaNoi,HaNoi,Vietnam,Manager_0001,0600000001,warehouse0001@example.com,18586,9142,main,active,demo_data
WH-0002,Warehouse_0002,Loc_WH-0002_HoChiMinh,HoChiMinh,Vietnam,Manager_0002,0600000002,warehouse0002@example.com,1727,589,regional,inactive,demo_data
WH-0003,Warehouse_0003,Loc_WH-0003_DaNang,DaNang,Vietnam,Manager_0003,0600000003,warehouse0003@example.com,1139,191,distribution,maintenance,demo_data
WH-0004,Warehouse_0004,Loc_WH-0004_HaiPhong,HaiPhong,Vietnam,Manager_0004,0600000004,warehouse0004@example.com,9040,1169,retail,active,demo_data
WH-0005,Warehouse_0005,Loc_WH-0005_CanTho,CanTho,Vietnam,Manager_0005,0600000005,warehouse0005@example.com,16002,12913,main,inactive,demo_data
WH-0006,Warehouse_0006,Loc_WH-0006_Hue,Hue,Vietnam,Manager_0006,0600000006,warehouse0006@example.com,8062,3689,regional,maintenance,demo_data
WH-0007,Warehouse_0007,Loc_WH-0007_NhaTrang,NhaTrang,Vietnam,Manager_0007,0600000007,warehouse0007@example.com,3951,903,distribution,active,demo_data
WH-0008,Warehouse_0008,Loc_WH-0008_VungTau,VungTau,Vietnam,Manager_0008,0600000008,warehouse0008@example.com,18997,6677,retail,inactive,demo_data
WH-0009,Warehouse_0009,Loc_WH-0009_BinhDuong,BinhDuong,Vietnam,Manager_0009,0600000009,warehouse0009@example.com,16524,15861,main,maintenance,demo_data
WH-0010,Warehouse_0010,Loc_WH-0010_BacNinh,BacNinh,Vietnam,Manager_0010,0600000010,warehouse0010@example.com,1836,1451,regional,active,demo_data
WH-0011,Warehouse_0011,Loc_WH-0011_HaNoi,HaNoi,Vietnam,Manager_0011,0600000011,warehouse0011@example.com,11400,2464,distribution,inactive,demo_data
WH-0012,Warehouse_0012,Loc_WH-0012_HoChiMinh,HoChiMinh,Vietnam,Manager_0012,0600000012,warehouse0012@example.com,7113,144,retail,maintenance,demo_data
WH-0013,Warehouse_0013,Loc_WH-0013_DaNang,DaNang,Vietnam,Manager_0013,0600000013,warehouse0013@example.com,16948,11999,main,active,demo_data
WH-0014,Warehouse_0014,Loc_WH-0014_HaiPhong,HaiPhong,Vietnam,Manager_0014,0600000014,warehouse0014@example.com,4379,1430,regional,inactive,demo_data
WH-0015,Warehouse_0015,Loc_WH-0015_CanTho,CanTho,Vietnam,Manager_0015,0600000015,warehouse0015@example.com,18887,9666,distribution,maintenance,demo_data
WH-0016,Warehouse_0016,Loc_WH-0016_Hue,Hue,Vietnam,Manager_0016,0600000016,warehouse0016@example.com,18444,11103,retail,active,demo_data
WH-0017,Warehouse_0017,Loc_WH-0017_NhaTrang,NhaTrang,Vietnam,Manager_0017,0600000017,warehouse0017@example.com,13018,3044,main,inactive,demo_data
WH-0018,Warehouse_0018,Loc_WH-0018_VungTau,VungTau,Vietnam,Manager_0018,0600000018,warehouse0018@example.com,19492,14564,regional,maintenance,demo_data
WH-0019,Warehouse_0019,Loc_WH-0019_BinhDuong,BinhDuong,Vietnam,Manager_0019,0600000019,warehouse0019@example.com,15917,4703,distribution,active,demo_data
WH-0020,Warehouse_0020,Loc_WH-0020_BacNinh,BacNinh,Vietnam,Manager_0020,0600000020,warehouse0020@example.com,15291,12715,retail,inactive,demo_data
WH-0021,Warehouse_0021,Loc_WH-0021_HaNoi,HaNoi,Vietnam,Manager_0021,0600000021,warehouse0021@example.com,8711,3831,main,maintenance,demo_data
WH-0022,Warehouse_0022,Loc_WH-0022_HoChiMinh,HoChiMinh,Vietnam,Manager_0022,0600000022,warehouse0022@example.com,19506,10095,regional,active,demo_data
WH-0023,Warehouse_0023,Loc_WH-0023_DaNang,DaNang,Vietnam,Manager_0023,0600000023,warehouse0023@example.com,6768,802,distribution,inactive,demo_data
WH-0024,Warehouse_0024,Loc_WH-0024_HaiPhong,HaiPhong,Vietnam,Manager_0024,0600000024,warehouse0024@example.com,6116,537,retail,maintenance,demo_data
WH-0025,Warehouse_0025,Loc_WH-0025_CanTho,CanTho,Vietnam,Manager_0025,0600000025,warehouse0025@example.com,13962,8758,main,active,demo_data
WH-0026,Warehouse_0026,Loc_WH-0026_Hue,Hue,Vietnam,Manager_0026,0600000026,warehouse0026@example.com,2146,1837,regional,inactive,demo_data
WH-0027,Warehouse_0027,Loc_WH-0027_NhaTrang,NhaTrang,Vietnam,Manager_0027,0600000027,warehouse0027@example.com,17934,16522,distribution,maintenance,demo_data
WH-0028,Warehouse_0028,Loc_WH-0028_VungTau,VungTau,Vietnam,Manager_0028,0600000028,warehouse0028@example.com,2750,162,retail,active,demo_data
WH-0029,Warehouse_0029,Loc_WH-0029_BinhDuong,BinhDuong,Vietnam,Manager_0029,0600000029,warehouse0029@example.com,11961,242,main,inactive,demo_data
WH-0030,Warehouse_0030,Loc_WH-0030_BacNinh,BacNinh,Vietnam,Manager_0030,0600000030,warehouse0030@example.com,1066,213,regional,maintenance,demo_data
WH-0031,Warehouse_0031,Loc_WH-0031_HaNoi,HaNoi,Vietnam,Manager_0031,0600000031,warehouse0031@example.com,12943,12237,distribution,active,demo_data
WH-0032,Warehouse_0032,Loc_WH-0032_HoChiMinh,HoChiMinh,Vietnam,Manager_0032,0600000032,warehouse0032@example.com,12895,7221,retail,inactive,demo_data
WH-0033,Warehouse_0033,Loc_WH-0033_DaNang,DaNang,Vietnam,Manager_0033,0600000033,warehouse0033@example.com,6624,790,main,maintenance,demo_data
WH-0034,Warehouse_0034,Loc_WH-0034_HaiPhong,HaiPhong,Vietnam,Manager_0034,0600000034,warehouse0034@example.com,8242,5609,regional,active,demo_data
WH-0035,Warehouse_0035,Loc_WH-0035_CanTho,CanTho,Vietnam,Manager_0035,0600000035,warehouse0035@example.com,7986,680,distribution,inactive,demo_data
WH-0036,Warehouse_0036,Loc_WH-0036_Hue,Hue,Vietnam,Manager_0036,0600000036,warehouse0036@example.com,10244,7871,retail,maintenance,demo_data
WH-0037,Warehouse_0037,Loc_WH-0037_NhaTrang,NhaTrang,Vietnam,Manager_0037,0600000037,warehouse0037@example.com,3105,666,main,active,demo_data
WH-0038,Warehouse_0038,Loc_WH-0038_VungTau,VungTau,Vietnam,Manager_0038,0600000038,warehouse0038@example.com,7671,6467,regional,inactive,demo_data
WH-0039,Warehouse_0039,Loc_WH-0039_BinhDuong,BinhDuong,Vietnam,Manager_0039,0600000039,warehouse0039@example.com,19339,6088,distribution,maintenance,demo_data
WH-0040,Warehouse_0040,Loc_WH-0040_BacNinh,BacNinh,Vietnam,Manager_0040,0600000040,warehouse0040@example.com,14281,13223,retail,active,demo_data
WH-0041,Warehouse_0041,Loc_WH-0041_HaNoi,HaNoi,Vietnam,Manager_0001,0600000041,warehouse0041@example.com,5154,1284,main,inactive,demo_data
WH-0042,Warehouse_0042,Loc_WH-0042_HoChiMinh,HoChiMinh,Vietnam,Manager_0002,0600000042,warehouse0042@example.com,14595,10839,regional,maintenance,demo_data
WH-0043,Warehouse_0043,Loc_WH-0043_DaNang,DaNang,Vietnam,Manager_0003,0600000043,warehouse0043@example.com,872,281,distribution,active,demo_data
WH-0044,Warehouse_0044,Loc_WH-0044_HaiPhong,HaiPhong,Vietnam,Manager_0004,0600000044,warehouse0044@example.com,11041,3171,retail,inactive,demo_data
WH-0045,Warehouse_0045,Loc_WH-0045_CanTho,CanTho,Vietnam,Manager_0005,0600000045,warehouse0045@example.com,1734,902,main,maintenance,demo_data
WH-0046,Warehouse_0046,Loc_WH-0046_Hue,Hue,Vietnam,Manager_0006,0600000046,warehouse0046@example.com,3286,936,regional,active,demo_data
WH-0047,Warehouse_0047,Loc_WH-0047_NhaTrang,NhaTrang,Vietnam,Manager_0007,0600000047,warehouse0047@example.com,12231,5002,distribution,inactive,demo_data
WH-0048,Warehouse_0048,Loc_WH-0048_VungTau,VungTau,Vietnam,Manager_0008,0600000048,warehouse0048@example.com,14436,1359,retail,maintenance,demo_data
WH-0049,Warehouse_0049,Loc_WH-0049_BinhDuong,BinhDuong,Vietnam,Manager_0009,0600000049,warehouse0049@example.com,2978,304,main,active,demo_data
WH-0050,Warehouse_0050,Loc_WH-0050_BacNinh,BacNinh,Vietnam,Manager_0010,0600000050,warehouse0050@example.com,3302,1320,regional,inactive,demo_data
WH-0051,Warehouse_0051,Loc_WH-0051_HaNoi,HaNoi,Vietnam,Manager_0011,0600000051,warehouse0051@example.com,19188,2933,distribution,maintenance,demo_data
WH-0052,Warehouse_0052,Loc_WH-0052_HoChiMinh,HoChiMinh,Vietnam,Manager_0012,0600000052,warehouse0052@example.com,15487,14810,retail,active,demo_data
WH-0053,Warehouse_0053,Loc_WH-0053_DaNang,DaNang,Vietnam,Manager_0013,0600000053,warehouse0053@example.com,3593,421,main,inactive,demo_data
WH-0054,Warehouse_0054,Loc_WH-0054_HaiPhong,HaiPhong,Vietnam,Manager_0014,0600000054,warehouse0054@example.com,16019,14033,regional,maintenance,demo_data
WH-0055,Warehouse_0055,Loc_WH-0055_CanTho,CanTho,Vietnam,Manager_0015,0600000055,warehouse0055@example.com,11985,7295,distribution,active,demo_data
WH-0056,Warehouse_0056,Loc_WH-0056_Hue,Hue,Vietnam,Manager_0016,0600000056,warehouse0056@example.com,9078,3137,retail,inactive,demo_data
WH-0057,Warehouse_0057,Loc_WH-0057_NhaTrang,NhaTrang,Vietnam,Manager_0017,0600000057,warehouse0057@example.com,13234,1295,main,maintenance,demo_data
WH-0058,Warehouse_0058,Loc_WH-0058_VungTau,VungTau,Vietnam,Manager_0018,0600000058,warehouse0058@example.com,7276,6960,regional,active,demo_data
WH-0059,Warehouse_0059,Loc_WH-0059_BinhDuong,BinhDuong,Vietnam,Manager_0019,0600000059,warehouse0059@example.com,1977,1591,distribution,inactive,demo_data
WH-0060,Warehouse_0060,Loc_WH-0060_BacNinh,BacNinh,Vietnam,Manager_0020,0600000060,warehouse0060@example.com,19278,10754,retail,maintenance,demo_data
WH-0061,Warehouse_0061,Loc_WH-0061_HaNoi,HaNoi,Vietnam,Manager_0021,0600000061,warehouse0061@example.com,8288,1135,main,active,demo_data
WH-0062,Warehouse_0062,Loc_WH-0062_HoChiMinh,HoChiMinh,Vietnam,Manager_0022,0600000062,warehouse0062@example.com,13947,4054,regional,inactive,demo_data
WH-0063,Warehouse_0063,Loc_WH-0063_DaNang,DaNang,Vietnam,Manager_0023,0600000063,warehouse0063@example.com,8795,2735,distribution,maintenance,demo_data
WH-0064,Warehouse_0064,Loc_WH-0064_HaiPhong,HaiPhong,Vietnam,Manager_0024,0600000064,warehouse0064@example.com,16190,7264,retail,active,demo_data
WH-0065,Warehouse_0065,Loc_WH-0065_CanTho,CanTho,Vietnam,Manager_0025,0600000065,warehouse0065@example.com,15804,14789,main,inactive,demo_data
WH-0066,Warehouse_0066,Loc_WH-0066_Hue,Hue,Vietnam,Manager_0026,0600000066,warehouse0066@example.com,1382,240,regional,maintenance,demo_data
WH-0067,Warehouse_0067,Loc_WH-0067_NhaTrang,NhaTrang,Vietnam,Manager_0027,0600000067,warehouse0067@example.com,11734,298,distribution,active,demo_data
WH-0068,Warehouse_0068,Loc_WH-0068_VungTau,VungTau,Vietnam,Manager_0028,0600000068,warehouse0068@example.com,851,330,retail,inactive,demo_data
WH-0069,Warehouse_0069,Loc_WH-0069_BinhDuong,BinhDuong,Vietnam,Manager_0029,0600000069,warehouse0069@example.com,15678,14955,main,maintenance,demo_data
WH-0070,Warehouse_0070,Loc_WH-0070_BacNinh,BacNinh,Vietnam,Manager_0030,0600000070,warehouse0070@example.com,15781,7188,regional,active,demo_data
WH-0071,Warehouse_0071,Loc_WH-0071_HaNoi,HaNoi,Vietnam,Manager_0031,0600000071,warehouse0071@example.com,9885,299,distribution,inactive,demo_data
WH-0072,Warehouse_0072,Loc_WH-0072_HoChiMinh,HoChiMinh,Vietnam,Manager_0032,0600000072,warehouse0072@example.com,3470,1888,retail,maintenance,demo_data
WH-0073,Warehouse_0073,Loc_WH-0073_DaNang,DaNang,Vietnam,Manager_0033,0600000073,warehouse0073@example.com,12323,11678,main,active,demo_data
WH-0074,Warehouse_0074,Loc_WH-0074_HaiPhong,HaiPhong,Vietnam,Manager_0034,0600000074,warehouse0074@example.com,14552,3081,regional,inactive,demo_data
WH-0075,Warehouse_0075,Loc_WH-0075_CanTho,CanTho,Vietnam,Manager_0035,0600000075,warehouse0075@example.com,16211,8408,distribution,maintenance,demo_data
WH-0076,Warehouse_0076,Loc_WH-0076_Hue,Hue,Vietnam,Manager_0036,0600000076,warehouse0076@example.com,13593,7117,retail,active,demo_data
WH-0077,Warehouse_0077,Loc_WH-0077_NhaTrang,NhaTrang,Vietnam,Manager_0037,0600000077,warehouse0077@example.com,12759,11581,main,inactive,demo_data
WH-0078,Warehouse_0078,Loc_WH-0078_VungTau,VungTau,Vietnam,Manager_0038,0600000078,warehouse0078@example.com,1905,269,regional,maintenance,demo_data
WH-0079,Warehouse_0079,Loc_WH-0079_BinhDuong,BinhDuong,Vietnam,Manager_0039,0600000079,warehouse0079@example.com,15188,13437,distribution,active,demo_data
WH-0080,Warehouse_0080,Loc_WH-0080_BacNinh,BacNinh,Vietnam,Manager_0040,0600000080,warehouse0080@example.com,16593,16288,retail,inactive,demo_data
WH-0081,Warehouse_0081,Loc_WH-0081_HaNoi,HaNoi,Vietnam,Manager_0001,0600000081,warehouse0081@example.com,14139,4466,main,maintenance,demo_data
WH-0082,Warehouse_0082,Loc_WH-0082_HoChiMinh,HoChiMinh,Vietnam,Manager_0002,0600000082,warehouse0082@example.com,15780,4727,regional,active,demo_data
WH-0083,Warehouse_0083,Loc_WH-0083_DaNang,DaNang,Vietnam,Manager_0003,0600000083,warehouse0083@example.com,17027,2676,distribution,inactive,demo_data
WH-0084,Warehouse_0084,Loc_WH-0084_HaiPhong,HaiPhong,Vietnam,Manager_0004,0600000084,warehouse0084@example.com,13008,3351,retail,maintenance,demo_data
WH-0085,Warehouse_0085,Loc_WH-0085_CanTho,CanTho,Vietnam,Manager_0005,0600000085,warehouse0085@example.com,17150,2100,main,active,demo_data
WH-0086,Warehouse_0086,Loc_WH-0086_Hue,Hue,Vietnam,Manager_0006,0600000086,warehouse0086@example.com,18628,13272,regional,inactive,demo_data
WH-0087,Warehouse_0087,Loc_WH-0087_NhaTrang,NhaTrang,Vietnam,Manager_0007,0600000087,warehouse0087@example.com,4524,826,distribution,maintenance,demo_data
WH-0088,Warehouse_0088,Loc_WH-0088_VungTau,VungTau,Vietnam,Manager_0008,0600000088,warehouse0088@example.com,14675,3243,retail,active,demo_data
WH-0089,Warehouse_0089,Loc_WH-0089_BinhDuong,BinhDuong,Vietnam,Manager_0009,0600000089,warehouse0089@example.com,943,413,main,inactive,demo_data
WH-0090,Warehouse_0090,Loc_WH-0090_BacNinh,BacNinh,Vietnam,Manager_0010,0600000090,warehouse0090@example.com,14281,12509,regional,maintenance,demo_data
WH-0091,Warehouse_0091,Loc_WH-0091_HaNoi,HaNoi,Vietnam,Manager_0011,0600000091,warehouse0091@example.com,15249,7581,distribution,active,demo_data
WH-0092,Warehouse_0092,Loc_WH-0092_HoChiMinh,HoChiMinh,Vietnam,Manager_0012,0600000092,warehouse0092@example.com,1805,1281,retail,inactive,demo_data
WH-0093,Warehouse_0093,Loc_WH-0093_DaNang,DaNang,Vietnam,Manager_0013,0600000093,warehouse0093@example.com,11052,1796,main,maintenance,demo_data
WH-0094,Warehouse_0094,Loc_WH-0094_HaiPhong,HaiPhong,Vietnam,Manager_0014,0600000094,warehouse0094@example.com,2847,1121,regional,active,demo_data
WH-0095,Warehouse_0095,Loc_WH-0095_CanTho,CanTho,Vietnam,Manager_0015,0600000095,warehouse0095@example.com,17186,10909,distribution,inactive,demo_data
WH-0096,Warehouse_0096,Loc_WH-0096_Hue,Hue,Vietnam,Manager_0016,0600000096,warehouse0096@example.com,13928,10663,retail,maintenance,demo_data
WH-0097,Warehouse_0097,Loc_WH-0097_NhaTrang,NhaTrang,Vietnam,Manager_0017,0600000097,warehouse0097@example.com,11070,3070,main,active,demo_data
WH-0098,Warehouse_0098,Loc_WH-0098_VungTau,VungTau,Vietnam,Manager_0018,0600000098,warehouse0098@example.com,6831,4508,regional,inactive,demo_data
WH-0099,Warehouse_0099,Loc_WH-0099_BinhDuong,BinhDuong,Vietnam,Manager_0019,0600000099,warehouse0099@example.com,4873,497,distribution,maintenance,demo_data
WH-0100,Warehouse_0100,Loc_WH-0100_BacNinh,BacNinh,Vietnam,Manager_0020,0600000100,warehouse0100@example.com,11200,4132,retail,active,demo_data
WH-0101,Warehouse_0101,Loc_WH-0101_HaNoi,HaNoi,Vietnam,Manager_0021,0600000101,warehouse0101@example.com,6749,6290,main,inactive,demo_data
WH-0102,Warehouse_0102,Loc_WH-0102_HoChiMinh,HoChiMinh,Vietnam,Manager_0022,0600000102,warehouse0102@example.com,2630,2411,regional,maintenance,demo_data
WH-0103,Warehouse_0103,Loc_WH-0103_DaNang,DaNang,Vietnam,Manager_0023,0600000103,warehouse0103@example.com,18944,3270,distribution,active,demo_data
WH-0104,Warehouse_0104,Loc_WH-0104_HaiPhong,HaiPhong,Vietnam,Manager_0024,0600000104,warehouse0104@example.com,17736,17402,retail,inactive,demo_data
WH-0105,Warehouse_0105,Loc_WH-0105_CanTho,CanTho,Vietnam,Manager_0025,0600000105,warehouse0105@example.com,17633,3883,main,maintenance,demo_data
WH-0106,Warehouse_0106,Loc_WH-0106_Hue,Hue,Vietnam,Manager_0026,0600000106,warehouse0106@example.com,15429,1349,regional,active,demo_data
WH-0107,Warehouse_0107,Loc_WH-0107_NhaTrang,NhaTrang,Vietnam,Manager_0027,0600000107,warehouse0107@example.com,9044,5670,distribution,inactive,demo_data
WH-0108,Warehouse_0108,Loc_WH-0108_VungTau,VungTau,Vietnam,Manager_0028,0600000108,warehouse0108@example.com,12247,9553,retail,maintenance,demo_data
WH-0109,Warehouse_0109,Loc_WH-0109_BinhDuong,BinhDuong,Vietnam,Manager_0029,0600000109,warehouse0109@example.com,19549,14494,main,active,demo_data
WH-0110,Warehouse_0110,Loc_WH-0110_BacNinh,BacNinh,Vietnam,Manager_0030,0600000110,warehouse0110@example.com,7874,683,regional,inactive,demo_data
WH-0111,Warehouse_0111,Loc_WH-0111_HaNoi,HaNoi,Vietnam,Manager_0031,0600000111,warehouse0111@example.com,13654,7104,distribution,maintenance,demo_data
WH-0112,Warehouse_0112,Loc_WH-0112_HoChiMinh,HoChiMinh,Vietnam,Manager_0032,0600000112,warehouse0112@example.com,5376,2250,retail,active,demo_data
WH-0113,Warehouse_0113,Loc_WH-0113_DaNang,DaNang,Vietnam,Manager_0033,0600000113,warehouse0113@example.com,19022,7122,main,inactive,demo_data
WH-0114,Warehouse_0114,Loc_WH-0114_HaiPhong,HaiPhong,Vietnam,Manager_0034,0600000114,warehouse0114@example.com,17348,7308,regional,maintenance,demo_data
WH-0115,Warehouse_0115,Loc_WH-0115_CanTho,CanTho,Vietnam,Manager_0035,0600000115,warehouse0115@example.com,17206,14618,distribution,active,demo_data
WH-0116,Warehouse_0116,Loc_WH-0116_Hue,Hue,Vietnam,Manager_0036,0600000116,warehouse0116@example.com,18915,9038,retail,inactive,demo_data
WH-0117,Warehouse_0117,Loc_WH-0117_NhaTrang,NhaTrang,Vietnam,Manager_0037,0600000117,warehouse0117@example.com,11438,10104,main,maintenance,demo_data
WH-0118,Warehouse_0118,Loc_WH-0118_VungTau,VungTau,Vietnam,Manager_0038,0600000118,warehouse0118@example.com,16794,1234,regional,active,demo_data
WH-0119,Warehouse_0119,Loc_WH-0119_BinhDuong,BinhDuong,Vietnam,Manager_0039,0600000119,warehouse0119@example.com,5956,4499,distribution,inactive,demo_data
WH-0120,Warehouse_0120,Loc_WH-0120_BacNinh,BacNinh,Vietnam,Manager_0040,0600000120,warehouse0120@example.com,7368,1599,retail,maintenance,demo_data
WH-0121,Warehouse_0121,Loc_WH-0121_HaNoi,HaNoi,Vietnam,Manager_0001,0600000121,warehouse0121@example.com,6222,2118,main,active,demo_data
WH-0122,Warehouse_0122,Loc_WH-0122_HoChiMinh,HoChiMinh,Vietnam,Manager_0002,0600000122,warehouse0122@example.com,14098,6293,regional,inactive,demo_data
WH-0123,Warehouse_0123,Loc_WH-0123_DaNang,DaNang,Vietnam,Manager_0003,0600000123,warehouse0123@example.com,4498,1810,distribution,maintenance,demo_data
WH-0124,Warehouse_0124,Loc_WH-0124_HaiPhong,HaiPhong,Vietnam,Manager_0004,0600000124,warehouse0124@example.com,19149,8247,retail,active,demo_data
WH-0125,Warehouse_0125,Loc_WH-0125_CanTho,CanTho,Vietnam,Manager_0005,0600000125,warehouse0125@example.com,17311,2875,main,inactive,demo_data
WH-0126,Warehouse_0126,Loc_WH-0126_Hue,Hue,Vietnam,Manager_0006,0600000126,warehouse0126@example.com,827,34,regional,maintenance,demo_data
WH-0127,Warehouse_0127,Loc_WH-0127_NhaTrang,NhaTrang,Vietnam,Manager_0007,0600000127,warehouse0127@example.com,18675,1335,distribution,active,demo_data
WH-0128,Warehouse_0128,Loc_WH-0128_VungTau,VungTau,Vietnam,Manager_0008,0600000128,warehouse0128@example.com,14156,2334,retail,inactive,demo_data
WH-0129,Warehouse_0129,Loc_WH-0129_BinhDuong,BinhDuong,Vietnam,Manager_0009,0600000129,warehouse0129@example.com,8493,1733,main,maintenance,demo_data
WH-0130,Warehouse_0130,Loc_WH-0130_BacNinh,BacNinh,Vietnam,Manager_0010,0600000130,warehouse0130@example.com,12669,3988,regional,active,demo_data
WH-0131,Warehouse_0131,Loc_WH-0131_HaNoi,HaNoi,Vietnam,Manager_0011,0600000131,warehouse0131@example.com,8492,3384,distribution,inactive,demo_data
WH-0132,Warehouse_0132,Loc_WH-0132_HoChiMinh,HoChiMinh,Vietnam,Manager_0012,0600000132,warehouse0132@example.com,9883,2537,retail,maintenance,demo_data
WH-0133,Warehouse_0133,Loc_WH-0133_DaNang,DaNang,Vietnam,Manager_0013,0600000133,warehouse0133@example.com,14655,8877,main,active,demo_data
WH-0134,Warehouse_0134,Loc_WH-0134_HaiPhong,HaiPhong,Vietnam,Manager_0014,0600000134,warehouse0134@example.com,2234,1460,regional,inactive,demo_data
WH-0135,Warehouse_0135,Loc_WH-0135_CanTho,CanTho,Vietnam,Manager_0015,0600000135,warehouse0135@example.com,13107,11160,distribution,maintenance,demo_data
WH-0136,Warehouse_0136,Loc_WH-0136_Hue,Hue,Vietnam,Manager_0016,0600000136,warehouse0136@example.com,6823,2344,retail,active,demo_data
WH-0137,Warehouse_0137,Loc_WH-0137_NhaTrang,NhaTrang,Vietnam,Manager_0017,0600000137,warehouse0137@example.com,12652,12135,main,inactive,demo_data
WH-0138,Warehouse_0138,Loc_WH-0138_VungTau,VungTau,Vietnam,Manager_0018,0600000138,warehouse0138@example.com,15958,11270,regional,maintenance,demo_data
WH-0139,Warehouse_0139,Loc_WH-0139_BinhDuong,BinhDuong,Vietnam,Manager_0019,0600000139,warehouse0139@example.com,6087,1640,distribution,active,demo_data
WH-0140,Warehouse_0140,Loc_WH-0140_BacNinh,BacNinh,Vietnam,Manager_0020,0600000140,warehouse0140@example.com,4663,3267,retail,inactive,demo_data
WH-0141,Warehouse_0141,Loc_WH-0141_HaNoi,HaNoi,Vietnam,Manager_0021,0600000141,warehouse0141@example.com,2213,540,main,maintenance,demo_data
WH-0142,Warehouse_0142,Loc_WH-0142_HoChiMinh,HoChiMinh,Vietnam,Manager_0022,0600000142,warehouse0142@example.com,19080,2630,regional,active,demo_data
WH-0143,Warehouse_0143,Loc_WH-0143_DaNang,DaNang,Vietnam,Manager_0023,0600000143,warehouse0143@example.com,14135,7178,distribution,inactive,demo_data
WH-0144,Warehouse_0144,Loc_WH-0144_HaiPhong,HaiPhong,Vietnam,Manager_0024,0600000144,warehouse0144@example.com,4038,3860,retail,maintenance,demo_data
WH-0145,Warehouse_0145,Loc_WH-0145_CanTho,CanTho,Vietnam,Manager_0025,0600000145,warehouse0145@example.com,2962,1823,main,active,demo_data
WH-0146,Warehouse_0146,Loc_WH-0146_Hue,Hue,Vietnam,Manager_0026,0600000146,warehouse0146@example.com,15725,15380,regional,inactive,demo_data
WH-0147,Warehouse_0147,Loc_WH-0147_NhaTrang,NhaTrang,Vietnam,Manager_0027,0600000147,warehouse0147@example.com,18437,14640,distribution,maintenance,demo_data
WH-0148,Warehouse_0148,Loc_WH-0148_VungTau,VungTau,Vietnam,Manager_0028,0600000148,warehouse0148@example.com,17377,951,retail,active,demo_data
WH-0149,Warehouse_0149,Loc_WH-0149_BinhDuong,BinhDuong,Vietnam,Manager_0029,0600000149,warehouse0149@example.com,12916,186,main,inactive,demo_data
WH-0150,Warehouse_0150,Loc_WH-0150_BacNinh,BacNinh,Vietnam,Manager_0030,0600000150,warehouse0150@example.com,6338,3029,regional,maintenance,demo_data
WH-0151,Warehouse_0151,Loc_WH-0151_HaNoi,HaNoi,Vietnam,Manager_0031,0600000151,warehouse0151@example.com,14171,3942,distribution,active,demo_data
WH-0152,Warehouse_0152,Loc_WH-0152_HoChiMinh,HoChiMinh,Vietnam,Manager_0032,0600000152,warehouse0152@example.com,9162,6813,retail,inactive,demo_data
WH-0153,Warehouse_0153,Loc_WH-0153_DaNang,DaNang,Vietnam,Manager_0033,0600000153,warehouse0153@example.com,4078,2184,main,maintenance,demo_data
WH-0154,Warehouse_0154,Loc_WH-0154_HaiPhong,HaiPhong,Vietnam,Manager_0034,0600000154,warehouse0154@example.com,7216,1268,regional,active,demo_data
WH-0155,Warehouse_0155,Loc_WH-0155_CanTho,CanTho,Vietnam,Manager_0035,0600000155,warehouse0155@example.com,15581,15410,distribution,inactive,demo_data
WH-0156,Warehouse_0156,Loc_WH-0156_Hue,Hue,Vietnam,Manager_0036,0600000156,warehouse0156@example.com,6417,247,retail,maintenance,demo_data
WH-0157,Warehouse_0157,Loc_WH-0157_NhaTrang,NhaTrang,Vietnam,Manager_0037,0600000157,warehouse0157@example.com,19254,2139,main,active,demo_data
WH-0158,Warehouse_0158,Loc_WH-0158_VungTau,VungTau,Vietnam,Manager_0038,0600000158,warehouse0158@example.com,8032,7663,regional,inactive,demo_data
WH-0159,Warehouse_0159,Loc_WH-0159_BinhDuong,BinhDuong,Vietnam,Manager_0039,0600000159,warehouse0159@example.com,1781,1356,distribution,maintenance,demo_data
WH-0160,Warehouse_0160,Loc_WH-0160_BacNinh,BacNinh,Vietnam,Manager_0040,0600000160,warehouse0160@example.com,6550,3584,retail,active,demo_data
WH-0161,Warehouse_0161,Loc_WH-0161_HaNoi,HaNoi,Vietnam,Manager_0001,0600000161,warehouse0161@example.com,2884,1283,main,inactive,demo_data
WH-0162,Warehouse_0162,Loc_WH-0162_HoChiMinh,HoChiMinh,Vietnam,Manager_0002,0600000162,warehouse0162@example.com,17518,15557,regional,maintenance,demo_data
WH-0163,Warehouse_0163,Loc_WH-0163_DaNang,DaNang,Vietnam,Manager_0003,0600000163,warehouse0163@example.com,18078,7931,distribution,active,demo_data
WH-0164,Warehouse_0164,Loc_WH-0164_HaiPhong,HaiPhong,Vietnam,Manager_0004,0600000164,warehouse0164@example.com,6086,3138,retail,inactive,demo_data
WH-0165,Warehouse_0165,Loc_WH-0165_CanTho,CanTho,Vietnam,Manager_0005,0600000165,warehouse0165@example.com,10384,5037,main,maintenance,demo_data
WH-0166,Warehouse_0166,Loc_WH-0166_Hue,Hue,Vietnam,Manager_0006,0600000166,warehouse0166@example.com,16833,13632,regional,active,demo_data
WH-0167,Warehouse_0167,Loc_WH-0167_NhaTrang,NhaTrang,Vietnam,Manager_0007,0600000167,warehouse0167@example.com,7267,5992,distribution,inactive,demo_data
WH-0168,Warehouse_0168,Loc_WH-0168_VungTau,VungTau,Vietnam,Manager_0008,0600000168,warehouse0168@example.com,6681,3358,retail,maintenance,demo_data
WH-0169,Warehouse_0169,Loc_WH-0169_BinhDuong,BinhDuong,Vietnam,Manager_0009,0600000169,warehouse0169@example.com,2254,733,main,active,demo_data
WH-0170,Warehouse_0170,Loc_WH-0170_BacNinh,BacNinh,Vietnam,Manager_0010,0600000170,warehouse0170@example.com,1816,1668,regional,inactive,demo_data
WH-0171,Warehouse_0171,Loc_WH-0171_HaNoi,HaNoi,Vietnam,Manager_0011,0600000171,warehouse0171@example.com,4662,3031,distribution,maintenance,demo_data
WH-0172,Warehouse_0172,Loc_WH-0172_HoChiMinh,HoChiMinh,Vietnam,Manager_0012,0600000172,warehouse0172@example.com,13958,13946,retail,active,demo_data
WH-0173,Warehouse_0173,Loc_WH-0173_DaNang,DaNang,Vietnam,Manager_0013,0600000173,warehouse0173@example.com,5679,4453,main,inactive,demo_data
WH-0174,Warehouse_0174,Loc_WH-0174_HaiPhong,HaiPhong,Vietnam,Manager_0014,0600000174,warehouse0174@example.com,15871,5236,regional,maintenance,demo_data
WH-0175,Warehouse_0175,Loc_WH-0175_CanTho,CanTho,Vietnam,Manager_0015,0600000175,warehouse0175@example.com,3866,562,distribution,active,demo_data
WH-0176,Warehouse_0176,Loc_WH-0176_Hue,Hue,Vietnam,Manager_0016,0600000176,warehouse0176@example.com,2469,1652,retail,inactive,demo_data
WH-0177,Warehouse_0177,Loc_WH-0177_NhaTrang,NhaTrang,Vietnam,Manager_0017,0600000177,warehouse0177@example.com,8907,7754,main,maintenance,demo_data
WH-0178,Warehouse_0178,Loc_WH-0178_VungTau,VungTau,Vietnam,Manager_0018,0600000178,warehouse0178@example.com,15430,2997,regional,active,demo_data
WH-0179,Warehouse_0179,Loc_WH-0179_BinhDuong,BinhDuong,Vietnam,Manager_0019,0600000179,warehouse0179@example.com,15360,3120,distribution,inactive,demo_data
WH-0180,Warehouse_0180,Loc_WH-0180_BacNinh,BacNinh,Vietnam,Manager_0020,0600000180,warehouse0180@example.com,13359,7651,retail,maintenance,demo_data
WH-0181,Warehouse_0181,Loc_WH-0181_HaNoi,HaNoi,Vietnam,Manager_0021,0600000181,warehouse0181@example.com,12862,7679,main,active,demo_data
WH-0182,Warehouse_0182,Loc_WH-0182_HoChiMinh,HoChiMinh,Vietnam,Manager_0022,0600000182,warehouse0182@example.com,2892,2296,regional,inactive,demo_data
WH-0183,Warehouse_0183,Loc_WH-0183_DaNang,DaNang,Vietnam,Manager_0023,0600000183,warehouse0183@example.com,16390,14469,distribution,maintenance,demo_data
WH-0184,Warehouse_0184,Loc_WH-0184_HaiPhong,HaiPhong,Vietnam,Manager_0024,0600000184,warehouse0184@example.com,12818,1275,retail,active,demo_data
WH-0185,Warehouse_0185,Loc_WH-0185_CanTho,CanTho,Vietnam,Manager_0025,0600000185,warehouse0185@example.com,15169,6786,main,inactive,demo_data
WH-0186,Warehouse_0186,Loc_WH-0186_Hue,Hue,Vietnam,Manager_0026,0600000186,warehouse0186@example.com,7387,1983,regional,maintenance,demo_data
WH-0187,Warehouse_0187,Loc_WH-0187_NhaTrang,NhaTrang,Vietnam,Manager_0027,0600000187,warehouse0187@example.com,14745,9044,distribution,active,demo_data
WH-0188,Warehouse_0188,Loc_WH-0188_VungTau,VungTau,Vietnam,Manager_0028,0600000188,warehouse0188@example.com,9973,1223,retail,inactive,demo_data
WH-0189,Warehouse_0189,Loc_WH-0189_BinhDuong,BinhDuong,Vietnam,Manager_0029,0600000189,warehouse0189@example.com,1100,586,main,maintenance,demo_data
WH-0190,Warehouse_0190,Loc_WH-0190_BacNinh,BacNinh,Vietnam,Manager_0030,0600000190,warehouse0190@example.com,1285,480,regional,active,demo_data
WH-0191,Warehouse_0191,Loc_WH-0191_HaNoi,HaNoi,Vietnam,Manager_0031,0600000191,warehouse0191@example.com,3472,1451,distribution,inactive,demo_data
WH-0192,Warehouse_0192,Loc_WH-0192_HoChiMinh,HoChiMinh,Vietnam,Manager_0032,0600000192,warehouse0192@example.com,18980,5052,retail,maintenance,demo_data
WH-0193,Warehouse_0193,Loc_WH-0193_DaNang,DaNang,Vietnam,Manager_0033,0600000193,warehouse0193@example.com,17753,1762,main,active,demo_data
WH-0194,Warehouse_0194,Loc_WH-0194_HaiPhong,HaiPhong,Vietnam,Manager_0034,0600000194,warehouse0194@example.com,17607,8903,regional,inactive,demo_data
WH-0195,Warehouse_0195,Loc_WH-0195_CanTho,CanTho,Vietnam,Manager_0035,0600000195,warehouse0195@example.com,17033,1591,distribution,maintenance,demo_data
WH-0196,Warehouse_0196,Loc_WH-0196_Hue,Hue,Vietnam,Manager_0036,0600000196,warehouse0196@example.com,17686,1714,retail,active,demo_data
WH-0197,Warehouse_0197,Loc_WH-0197_NhaTrang,NhaTrang,Vietnam,Manager_0037,0600000197,warehouse0197@example.com,17178,12237,main,inactive,demo_data
WH-0198,Warehouse_0198,Loc_WH-0198_VungTau,VungTau,Vietnam,Manager_0038,0600000198,warehouse0198@example.com,14100,5833,regional,maintenance,demo_data
WH-0199,Warehouse_0199,Loc_WH-0199_BinhDuong,BinhDuong,Vietnam,Manager_0039,0600000199,warehouse0199@example.com,14760,11881,distribution,active,demo_data
WH-0200,Warehouse_0200,Loc_WH-0200_BacNinh,BacNinh,Vietnam,Manager_0040,0600000200,warehouse0200@example.com,11135,1313,retail,inactive,demo_data
WH-0201,Warehouse_0201,Loc_WH-0201_HaNoi,HaNoi,Vietnam,Manager_0001,0600000201,warehouse0201@example.com,9249,8720,main,maintenance,demo_data
WH-0202,Warehouse_0202,Loc_WH-0202_HoChiMinh,HoChiMinh,Vietnam,Manager_0002,0600000202,warehouse0202@example.com,5817,475,regional,active,demo_data
WH-0203,Warehouse_0203,Loc_WH-0203_DaNang,DaNang,Vietnam,Manager_0003,0600000203,warehouse0203@example.com,15685,11219,distribution,inactive,demo_data
WH-0204,Warehouse_0204,Loc_WH-0204_HaiPhong,HaiPhong,Vietnam,Manager_0004,0600000204,warehouse0204@example.com,14095,7136,retail,maintenance,demo_data
WH-0205,Warehouse_0205,Loc_WH-0205_CanTho,CanTho,Vietnam,Manager_0005,0600000205,warehouse0205@example.com,13449,12313,main,active,demo_data
WH-0206,Warehouse_0206,Loc_WH-0206_Hue,Hue,Vietnam,Manager_0006,0600000206,warehouse0206@example.com,13075,1741,regional,inactive,demo_data
WH-0207,Warehouse_0207,Loc_WH-0207_NhaTrang,NhaTrang,Vietnam,Manager_0007,0600000207,warehouse0207@example.com,17866,10877,distribution,maintenance,demo_data
WH-0208,Warehouse_0208,Loc_WH-0208_VungTau,VungTau,Vietnam,Manager_0008,0600000208,warehouse0208@example.com,17446,14159,retail,active,demo_data
WH-0209,Warehouse_0209,Loc_WH-0209_BinhDuong,BinhDuong,Vietnam,Manager_0009,0600000209,warehouse0209@example.com,6025,441,main,inactive,demo_data
WH-0210,Warehouse_0210,Loc_WH-0210_BacNinh,BacNinh,Vietnam,Manager_0010,0600000210,warehouse0210@example.com,19621,3389,regional,maintenance,demo_data
WH-0211,Warehouse_0211,Loc_WH-0211_HaNoi,HaNoi,Vietnam,Manager_0011,0600000211,warehouse0211@example.com,12474,3572,distribution,active,demo_data
WH-0212,Warehouse_0212,Loc_WH-0212_HoChiMinh,HoChiMinh,Vietnam,Manager_0012,0600000212,warehouse0212@example.com,3720,229,retail,inactive,demo_data
WH-0213,Warehouse_0213,Loc_WH-0213_DaNang,DaNang,Vietnam,Manager_0013,0600000213,warehouse0213@example.com,4150,971,main,maintenance,demo_data
WH-0214,Warehouse_0214,Loc_WH-0214_HaiPhong,HaiPhong,Vietnam,Manager_0014,0600000214,warehouse0214@example.com,14977,13784,regional,active,demo_data
WH-0215,Warehouse_0215,Loc_WH-0215_CanTho,CanTho,Vietnam,Manager_0015,0600000215,warehouse0215@example.com,15186,14888,distribution,inactive,demo_data
WH-0216,Warehouse_0216,Loc_WH-0216_Hue,Hue,Vietnam,Manager_0016,0600000216,warehouse0216@example.com,16473,5217,retail,maintenance,demo_data
WH-0217,Warehouse_0217,Loc_WH-0217_NhaTrang,NhaTrang,Vietnam,Manager_0017,0600000217,warehouse0217@example.com,14324,3631,main,active,demo_data
WH-0218,Warehouse_0218,Loc_WH-0218_VungTau,VungTau,Vietnam,Manager_0018,0600000218,warehouse0218@example.com,18464,12902,regional,inactive,demo_data
WH-0219,Warehouse_0219,Loc_WH-0219_BinhDuong,BinhDuong,Vietnam,Manager_0019,0600000219,warehouse0219@example.com,13924,4818,distribution,maintenance,demo_data
WH-0220,Warehouse_0220,Loc_WH-0220_BacNinh,BacNinh,Vietnam,Manager_0020,0600000220,warehouse0220@example.com,515,89,retail,active,demo_data
WH-0221,Warehouse_0221,Loc_WH-0221_HaNoi,HaNoi,Vietnam,Manager_0021,0600000221,warehouse0221@example.com,8659,7657,main,inactive,demo_data
WH-0222,Warehouse_0222,Loc_WH-0222_HoChiMinh,HoChiMinh,Vietnam,Manager_0022,0600000222,warehouse0222@example.com,10198,4154,regional,maintenance,demo_data
WH-0223,Warehouse_0223,Loc_WH-0223_DaNang,DaNang,Vietnam,Manager_0023,0600000223,warehouse0223@example.com,12536,7228,distribution,active,demo_data
WH-0224,Warehouse_0224,Loc_WH-0224_HaiPhong,HaiPhong,Vietnam,Manager_0024,0600000224,warehouse0224@example.com,11956,3836,retail,inactive,demo_data
WH-0225,Warehouse_0225,Loc_WH-0225_CanTho,CanTho,Vietnam,Manager_0025,0600000225,warehouse0225@example.com,18787,16314,main,maintenance,demo_data
WH-0226,Warehouse_0226,Loc_WH-0226_Hue,Hue,Vietnam,Manager_0026,0600000226,warehouse0226@example.com,3493,832,regional,active,demo_data
WH-0227,Warehouse_0227,Loc_WH-0227_NhaTrang,NhaTrang,Vietnam,Manager_0027,0600000227,warehouse0227@example.com,2223,979,distribution,inactive,demo_data
WH-0228,Warehouse_0228,Loc_WH-0228_VungTau,VungTau,Vietnam,Manager_0028,0600000228,warehouse0228@example.com,5529,2657,retail,maintenance,demo_data
WH-0229,Warehouse_0229,Loc_WH-0229_BinhDuong,BinhDuong,Vietnam,Manager_0029,0600000229,warehouse0229@example.com,13203,11910,main,active,demo_data
WH-0230,Warehouse_0230,Loc_WH-0230_BacNinh,BacNinh,Vietnam,Manager_0030,0600000230,warehouse0230@example.com,701,204,regional,inactive,demo_data
WH-0231,Warehouse_0231,Loc_WH-0231_HaNoi,HaNoi,Vietnam,Manager_0031,0600000231,warehouse0231@example.com,1561,153,distribution,maintenance,demo_data
WH-0232,Warehouse_0232,Loc_WH-0232_HoChiMinh,HoChiMinh,Vietnam,Manager_0032,0600000232,warehouse0232@example.com,18614,3589,retail,active,demo_data
WH-0233,Warehouse_0233,Loc_WH-0233_DaNang,DaNang,Vietnam,Manager_0033,0600000233,warehouse0233@example.com,14650,4363,main,inactive,demo_data
WH-0234,Warehouse_0234,Loc_WH-0234_HaiPhong,HaiPhong,Vietnam,Manager_0034,0600000234,warehouse0234@example.com,18353,12283,regional,maintenance,demo_data
WH-0235,Warehouse_0235,Loc_WH-0235_CanTho,CanTho,Vietnam,Manager_0035,0600000235,warehouse0235@example.com,6910,2299,distribution,active,demo_data
WH-0236,Warehouse_0236,Loc_WH-0236_Hue,Hue,Vietnam,Manager_0036,0600000236,warehouse0236@example.com,7187,4841,retail,inactive,demo_data
WH-0237,Warehouse_0237,Loc_WH-0237_NhaTrang,NhaTrang,Vietnam,Manager_0037,0600000237,warehouse0237@example.com,5962,4377,main,maintenance,demo_data
WH-0238,Warehouse_0238,Loc_WH-0238_VungTau,VungTau,Vietnam,Manager_0038,0600000238,warehouse0238@example.com,11027,651,regional,active,demo_data
WH-0239,Warehouse_0239,Loc_WH-0239_BinhDuong,BinhDuong,Vietnam,Manager_0039,0600000239,warehouse0239@example.com,14000,4065,distribution,inactive,demo_data
WH-0240,Warehouse_0240,Loc_WH-0240_BacNinh,BacNinh,Vietnam,Manager_0040,0600000240,warehouse0240@example.com,13218,10675,retail,maintenance,demo_data
WH-0241,Warehouse_0241,Loc_WH-0241_HaNoi,HaNoi,Vietnam,Manager_0001,0600000241,warehouse0241@example.com,10564,5982,main,active,demo_data
WH-0242,Warehouse_0242,Loc_WH-0242_HoChiMinh,HoChiMinh,Vietnam,Manager_0002,0600000242,warehouse0242@example.com,4797,2035,regional,inactive,demo_data
WH-0243,Warehouse_0243,Loc_WH-0243_DaNang,DaNang,Vietnam,Manager_0003,0600000243,warehouse0243@example.com,7968,6032,distribution,maintenance,demo_data
WH-0244,Warehouse_0244,Loc_WH-0244_HaiPhong,HaiPhong,Vietnam,Manager_0004,0600000244,warehouse0244@example.com,5805,3,retail,active,demo_data
WH-0245,Warehouse_0245,Loc_WH-0245_CanTho,CanTho,Vietnam,Manager_0005,0600000245,warehouse0245@example.com,19792,4559,main,inactive,demo_data
WH-0246,Warehouse_0246,Loc_WH-0246_Hue,Hue,Vietnam,Manager_0006,0600000246,warehouse0246@example.com,9330,9020,regional,maintenance,demo_data
WH-0247,Warehouse_0247,Loc_WH-0247_NhaTrang,NhaTrang,Vietnam,Manager_0007,0600000247,warehouse0247@example.com,16732,8236,distribution,active,demo_data
WH-0248,Warehouse_0248,Loc_WH-0248_VungTau,VungTau,Vietnam,Manager_0008,0600000248,warehouse0248@example.com,13479,6129,retail,inactive,demo_data
WH-0249,Warehouse_0249,Loc_WH-0249_BinhDuong,BinhDuong,Vietnam,Manager_0009,0600000249,warehouse0249@example.com,8143,7736,main,maintenance,demo_data
WH-0250,Warehouse_0250,Loc_WH-0250_BacNinh,BacNinh,Vietnam,Manager_0010,0600000250,warehouse0250@example.com,2877,57,regional,active,demo_data
WH-0251,Warehouse_0251,Loc_WH-0251_HaNoi,HaNoi,Vietnam,Manager_0011,0600000251,warehouse0251@example.com,12191,6006,distribution,inactive,demo_data
WH-0252,Warehouse_0252,Loc_WH-0252_HoChiMinh,HoChiMinh,Vietnam,Manager_0012,0600000252,warehouse0252@example.com,16502,7788,retail,maintenance,demo_data
WH-0253,Warehouse_0253,Loc_WH-0253_DaNang,DaNang,Vietnam,Manager_0013,0600000253,warehouse0253@example.com,4322,550,main,active,demo_data
WH-0254,Warehouse_0254,Loc_WH-0254_HaiPhong,HaiPhong,Vietnam,Manager_0014,0600000254,warehouse0254@example.com,1570,862,regional,inactive,demo_data
WH-0255,Warehouse_0255,Loc_WH-0255_CanTho,CanTho,Vietnam,Manager_0015,0600000255,warehouse0255@example.com,14420,13588,distribution,maintenance,demo_data
WH-0256,Warehouse_0256,Loc_WH-0256_Hue,Hue,Vietnam,Manager_0016,0600000256,warehouse0256@example.com,12307,5804,retail,active,demo_data
WH-0257,Warehouse_0257,Loc_WH-0257_NhaTrang,NhaTrang,Vietnam,Manager_0017,0600000257,warehouse0257@example.com,7954,6377,main,inactive,demo_data
WH-0258,Warehouse_0258,Loc_WH-0258_VungTau,VungTau,Vietnam,Manager_0018,0600000258,warehouse0258@example.com,1663,807,regional,maintenance,demo_data
WH-0259,Warehouse_0259,Loc_WH-0259_BinhDuong,BinhDuong,Vietnam,Manager_0019,0600000259,warehouse0259@example.com,16540,7252,distribution,active,demo_data
WH-0260,Warehouse_0260,Loc_WH-0260_BacNinh,BacNinh,Vietnam,Manager_0020,0600000260,warehouse0260@example.com,18318,16997,retail,inactive,demo_data
WH-0261,Warehouse_0261,Loc_WH-0261_HaNoi,HaNoi,Vietnam,Manager_0021,0600000261,warehouse0261@example.com,8731,2571,main,maintenance,demo_data
WH-0262,Warehouse_0262,Loc_WH-0262_HoChiMinh,HoChiMinh,Vietnam,Manager_0022,0600000262,warehouse0262@example.com,17151,3260,regional,active,demo_data
WH-0263,Warehouse_0263,Loc_WH-0263_DaNang,DaNang,Vietnam,Manager_0023,0600000263,warehouse0263@example.com,1374,1223,distribution,inactive,demo_data
WH-0264,Warehouse_0264,Loc_WH-0264_HaiPhong,HaiPhong,Vietnam,Manager_0024,0600000264,warehouse0264@example.com,18640,2453,retail,maintenance,demo_data
WH-0265,Warehouse_0265,Loc_WH-0265_CanTho,CanTho,Vietnam,Manager_0025,0600000265,warehouse0265@example.com,13650,11595,main,active,demo_data
WH-0266,Warehouse_0266,Loc_WH-0266_Hue,Hue,Vietnam,Manager_0026,0600000266,warehouse0266@example.com,12208,519,regional,inactive,demo_data
WH-0267,Warehouse_0267,Loc_WH-0267_NhaTrang,NhaTrang,Vietnam,Manager_0027,0600000267,warehouse0267@example.com,11803,5722,distribution,maintenance,demo_data
WH-0268,Warehouse_0268,Loc_WH-0268_VungTau,VungTau,Vietnam,Manager_0028,0600000268,warehouse0268@example.com,12149,9362,retail,active,demo_data
WH-0269,Warehouse_0269,Loc_WH-0269_BinhDuong,BinhDuong,Vietnam,Manager_0029,0600000269,warehouse0269@example.com,4159,2488,main,inactive,demo_data
WH-0270,Warehouse_0270,Loc_WH-0270_BacNinh,BacNinh,Vietnam,Manager_0030,0600000270,warehouse0270@example.com,10470,793,regional,maintenance,demo_data
WH-0271,Warehouse_0271,Loc_WH-0271_HaNoi,HaNoi,Vietnam,Manager_0031,0600000271,warehouse0271@example.com,5860,1776,distribution,active,demo_data
WH-0272,Warehouse_0272,Loc_WH-0272_HoChiMinh,HoChiMinh,Vietnam,Manager_0032,0600000272,warehouse0272@example.com,16725,11741,retail,inactive,demo_data
WH-0273,Warehouse_0273,Loc_WH-0273_DaNang,DaNang,Vietnam,Manager_0033,0600000273,warehouse0273@example.com,679,385,main,maintenance,demo_data
WH-0274,Warehouse_0274,Loc_WH-0274_HaiPhong,HaiPhong,Vietnam,Manager_0034,0600000274,warehouse0274@example.com,17449,6016,regional,active,demo_data
WH-0275,Warehouse_0275,Loc_WH-0275_CanTho,CanTho,Vietnam,Manager_0035,0600000275,warehouse0275@example.com,886,117,distribution,inactive,demo_data
WH-0276,Warehouse_0276,Loc_WH-0276_Hue,Hue,Vietnam,Manager_0036,0600000276,warehouse0276@example.com,7885,1559,retail,maintenance,demo_data
WH-0277,Warehouse_0277,Loc_WH-0277_NhaTrang,NhaTrang,Vietnam,Manager_0037,0600000277,warehouse0277@example.com,6098,5019,main,active,demo_data
WH-0278,Warehouse_0278,Loc_WH-0278_VungTau,VungTau,Vietnam,Manager_0038,0600000278,warehouse0278@example.com,3526,2282,regional,inactive,demo_data
WH-0279,Warehouse_0279,Loc_WH-0279_BinhDuong,BinhDuong,Vietnam,Manager_0039,0600000279,warehouse0279@example.com,2332,60,distribution,maintenance,demo_data
WH-0280,Warehouse_0280,Loc_WH-0280_BacNinh,BacNinh,Vietnam,Manager_0040,0600000280,warehouse0280@example.com,12394,2593,retail,active,demo_data
WH-0281,Warehouse_0281,Loc_WH-0281_HaNoi,HaNoi,Vietnam,Manager_0001,0600000281,warehouse0281@example.com,8875,3584,main,inactive,demo_data
WH-0282,Warehouse_0282,Loc_WH-0282_HoChiMinh,HoChiMinh,Vietnam,Manager_0002,0600000282,warehouse0282@example.com,5863,584,regional,maintenance,demo_data
WH-0283,Warehouse_0283,Loc_WH-0283_DaNang,DaNang,Vietnam,Manager_0003,0600000283,warehouse0283@example.com,7012,1435,distribution,active,demo_data
WH-0284,Warehouse_0284,Loc_WH-0284_HaiPhong,HaiPhong,Vietnam,Manager_0004,0600000284,warehouse0284@example.com,15062,7182,retail,inactive,demo_data
WH-0285,Warehouse_0285,Loc_WH-0285_CanTho,CanTho,Vietnam,Manager_0005,0600000285,warehouse0285@example.com,5982,5387,main,maintenance,demo_data
WH-0286,Warehouse_0286,Loc_WH-0286_Hue,Hue,Vietnam,Manager_0006,0600000286,warehouse0286@example.com,11008,4891,regional,active,demo_data
WH-0287,Warehouse_0287,Loc_WH-0287_NhaTrang,NhaTrang,Vietnam,Manager_0007,0600000287,warehouse0287@example.com,9073,5879,distribution,inactive,demo_data
WH-0288,Warehouse_0288,Loc_WH-0288_VungTau,VungTau,Vietnam,Manager_0008,0600000288,warehouse0288@example.com,12751,656,retail,maintenance,demo_data
WH-0289,Warehouse_0289,Loc_WH-0289_BinhDuong,BinhDuong,Vietnam,Manager_0009,0600000289,warehouse0289@example.com,14976,11951,main,active,demo_data
WH-0290,Warehouse_0290,Loc_WH-0290_BacNinh,BacNinh,Vietnam,Manager_0010,0600000290,warehouse0290@example.com,13223,3301,regional,inactive,demo_data
WH-0291,Warehouse_0291,Loc_WH-0291_HaNoi,HaNoi,Vietnam,Manager_0011,0600000291,warehouse0291@example.com,3778,3731,distribution,maintenance,demo_data
WH-0292,Warehouse_0292,Loc_WH-0292_HoChiMinh,HoChiMinh,Vietnam,Manager_0012,0600000292,warehouse0292@example.com,1518,984,retail,active,demo_data
WH-0293,Warehouse_0293,Loc_WH-0293_DaNang,DaNang,Vietnam,Manager_0013,0600000293,warehouse0293@example.com,7534,3347,main,inactive,demo_data
WH-0294,Warehouse_0294,Loc_WH-0294_HaiPhong,HaiPhong,Vietnam,Manager_0014,0600000294,warehouse0294@example.com,1161,41,regional,maintenance,demo_data
WH-0295,Warehouse_0295,Loc_WH-0295_CanTho,CanTho,Vietnam,Manager_0015,0600000295,warehouse0295@example.com,2169,1198,distribution,active,demo_data
WH-0296,Warehouse_0296,Loc_WH-0296_Hue,Hue,Vietnam,Manager_0016,0600000296,warehouse0296@example.com,7516,6294,retail,inactive,demo_data
WH-0297,Warehouse_0297,Loc_WH-0297_NhaTrang,NhaTrang,Vietnam,Manager_0017,0600000297,warehouse0297@example.com,13843,9676,main,maintenance,demo_data
WH-0298,Warehouse_0298,Loc_WH-0298_VungTau,VungTau,Vietnam,Manager_0018,0600000298,warehouse0298@example.com,16145,5978,regional,active,demo_data
WH-0299,Warehouse_0299,Loc_WH-0299_BinhDuong,BinhDuong,Vietnam,Manager_0019,0600000299,warehouse0299@example.com,16436,7708,distribution,inactive,demo_data
WH-0300,Warehouse_0300,Loc_WH-0300_BacNinh,BacNinh,Vietnam,Manager_0020,0600000300,warehouse0300@example.com,5091,2675,retail,maintenance,demo_data
WH-0301,Warehouse_0301,Loc_WH-0301_HaNoi,HaNoi,Vietnam,Manager_0021,0600000301,warehouse0301@example.com,16231,4534,main,active,demo_data
WH-0302,Warehouse_0302,Loc_WH-0302_HoChiMinh,HoChiMinh,Vietnam,Manager_0022,0600000302,warehouse0302@example.com,19626,5183,regional,inactive,demo_data
WH-0303,Warehouse_0303,Loc_WH-0303_DaNang,DaNang,Vietnam,Manager_0023,0600000303,warehouse0303@example.com,11476,5686,distribution,maintenance,demo_data
WH-0304,Warehouse_0304,Loc_WH-0304_HaiPhong,HaiPhong,Vietnam,Manager_0024,0600000304,warehouse0304@example.com,14461,8518,retail,active,demo_data
WH-0305,Warehouse_0305,Loc_WH-0305_CanTho,CanTho,Vietnam,Manager_0025,0600000305,warehouse0305@example.com,2514,2192,main,inactive,demo_data
WH-0306,Warehouse_0306,Loc_WH-0306_Hue,Hue,Vietnam,Manager_0026,0600000306,warehouse0306@example.com,15900,11171,regional,maintenance,demo_data
WH-0307,Warehouse_0307,Loc_WH-0307_NhaTrang,NhaTrang,Vietnam,Manager_0027,0600000307,warehouse0307@example.com,3163,2514,distribution,active,demo_data
WH-0308,Warehouse_0308,Loc_WH-0308_VungTau,VungTau,Vietnam,Manager_0028,0600000308,warehouse0308@example.com,7696,7094,retail,inactive,demo_data
WH-0309,Warehouse_0309,Loc_WH-0309_BinhDuong,BinhDuong,Vietnam,Manager_0029,0600000309,warehouse0309@example.com,14586,4100,main,maintenance,demo_data
WH-0310,Warehouse_0310,Loc_WH-0310_BacNinh,BacNinh,Vietnam,Manager_0030,0600000310,warehouse0310@example.com,2232,554,regional,active,demo_data
WH-0311,Warehouse_0311,Loc_WH-0311_HaNoi,HaNoi,Vietnam,Manager_0031,0600000311,warehouse0311@example.com,5489,371,distribution,inactive,demo_data
WH-0312,Warehouse_0312,Loc_WH-0312_HoChiMinh,HoChiMinh,Vietnam,Manager_0032,0600000312,warehouse0312@example.com,5611,16,retail,maintenance,demo_data
WH-0313,Warehouse_0313,Loc_WH-0313_DaNang,DaNang,Vietnam,Manager_0033,0600000313,warehouse0313@example.com,8146,5741,main,active,demo_data
WH-0314,Warehouse_0314,Loc_WH-0314_HaiPhong,HaiPhong,Vietnam,Manager_0034,0600000314,warehouse0314@example.com,1617,1531,regional,inactive,demo_data
WH-0315,Warehouse_0315,Loc_WH-0315_CanTho,CanTho,Vietnam,Manager_0035,0600000315,warehouse0315@example.com,10518,7649,distribution,maintenance,demo_data
WH-0316,Warehouse_0316,Loc_WH-0316_Hue,Hue,Vietnam,Manager_0036,0600000316,warehouse0316@example.com,12333,6637,retail,active,demo_data
WH-0317,Warehouse_0317,Loc_WH-0317_NhaTrang,NhaTrang,Vietnam,Manager_0037,0600000317,warehouse0317@example.com,3330,2316,main,inactive,demo_data
WH-0318,Warehouse_0318,Loc_WH-0318_VungTau,VungTau,Vietnam,Manager_0038,0600000318,warehouse0318@example.com,1277,1231,regional,maintenance,demo_data
WH-0319,Warehouse_0319,Loc_WH-0319_BinhDuong,BinhDuong,Vietnam,Manager_0039,0600000319,warehouse0319@example.com,5893,1029,distribution,active,demo_data
WH-0320,Warehouse_0320,Loc_WH-0320_BacNinh,BacNinh,Vietnam,Manager_0040,0600000320,warehouse0320@example.com,5998,2046,retail,inactive,demo_data
WH-0321,Warehouse_0321,Loc_WH-0321_HaNoi,HaNoi,Vietnam,Manager_0001,0600000321,warehouse0321@example.com,10066,2567,main,maintenance,demo_data
WH-0322,Warehouse_0322,Loc_WH-0322_HoChiMinh,HoChiMinh,Vietnam,Manager_0002,0600000322,warehouse0322@example.com,10125,9837,regional,active,demo_data
WH-0323,Warehouse_0323,Loc_WH-0323_DaNang,DaNang,Vietnam,Manager_0003,0600000323,warehouse0323@example.com,4945,1007,distribution,inactive,demo_data
WH-0324,Warehouse_0324,Loc_WH-0324_HaiPhong,HaiPhong,Vietnam,Manager_0004,0600000324,warehouse0324@example.com,734,226,retail,maintenance,demo_data
WH-0325,Warehouse_0325,Loc_WH-0325_CanTho,CanTho,Vietnam,Manager_0005,0600000325,warehouse0325@example.com,17114,16961,main,active,demo_data
WH-0326,Warehouse_0326,Loc_WH-0326_Hue,Hue,Vietnam,Manager_0006,0600000326,warehouse0326@example.com,11479,10565,regional,inactive,demo_data
WH-0327,Warehouse_0327,Loc_WH-0327_NhaTrang,NhaTrang,Vietnam,Manager_0007,0600000327,warehouse0327@example.com,8518,3541,distribution,maintenance,demo_data
WH-0328,Warehouse_0328,Loc_WH-0328_VungTau,VungTau,Vietnam,Manager_0008,0600000328,warehouse0328@example.com,5790,1928,retail,active,demo_data
WH-0329,Warehouse_0329,Loc_WH-0329_BinhDuong,BinhDuong,Vietnam,Manager_0009,0600000329,warehouse0329@example.com,13983,9413,main,inactive,demo_data
WH-0330,Warehouse_0330,Loc_WH-0330_BacNinh,BacNinh,Vietnam,Manager_0010,0600000330,warehouse0330@example.com,7153,5904,regional,maintenance,demo_data
WH-0331,Warehouse_0331,Loc_WH-0331_HaNoi,HaNoi,Vietnam,Manager_0011,0600000331,warehouse0331@example.com,16046,6257,distribution,active,demo_data
WH-0332,Warehouse_0332,Loc_WH-0332_HoChiMinh,HoChiMinh,Vietnam,Manager_0012,0600000332,warehouse0332@example.com,5135,3105,retail,inactive,demo_data
WH-0333,Warehouse_0333,Loc_WH-0333_DaNang,DaNang,Vietnam,Manager_0013,0600000333,warehouse0333@example.com,16926,522,main,maintenance,demo_data
WH-0334,Warehouse_0334,Loc_WH-0334_HaiPhong,HaiPhong,Vietnam,Manager_0014,0600000334,warehouse0334@example.com,2689,1135,regional,active,demo_data
WH-0335,Warehouse_0335,Loc_WH-0335_CanTho,CanTho,Vietnam,Manager_0015,0600000335,warehouse0335@example.com,645,276,distribution,inactive,demo_data
WH-0336,Warehouse_0336,Loc_WH-0336_Hue,Hue,Vietnam,Manager_0016,0600000336,warehouse0336@example.com,6690,1562,retail,maintenance,demo_data
WH-0337,Warehouse_0337,Loc_WH-0337_NhaTrang,NhaTrang,Vietnam,Manager_0017,0600000337,warehouse0337@example.com,11395,4746,main,active,demo_data
WH-0338,Warehouse_0338,Loc_WH-0338_VungTau,VungTau,Vietnam,Manager_0018,0600000338,warehouse0338@example.com,19385,6333,regional,inactive,demo_data
WH-0339,Warehouse_0339,Loc_WH-0339_BinhDuong,BinhDuong,Vietnam,Manager_0019,0600000339,warehouse0339@example.com,5919,5073,distribution,maintenance,demo_data
WH-0340,Warehouse_0340,Loc_WH-0340_BacNinh,BacNinh,Vietnam,Manager_0020,0600000340,warehouse0340@example.com,11211,8627,retail,active,demo_data
WH-0341,Warehouse_0341,Loc_WH-0341_HaNoi,HaNoi,Vietnam,Manager_0021,0600000341,warehouse0341@example.com,619,378,main,inactive,demo_data
WH-0342,Warehouse_0342,Loc_WH-0342_HoChiMinh,HoChiMinh,Vietnam,Manager_0022,0600000342,warehouse0342@example.com,2307,1168,regional,maintenance,demo_data
WH-0343,Warehouse_0343,Loc_WH-0343_DaNang,DaNang,Vietnam,Manager_0023,0600000343,warehouse0343@example.com,11901,8679,distribution,active,demo_data
WH-0344,Warehouse_0344,Loc_WH-0344_HaiPhong,HaiPhong,Vietnam,Manager_0024,0600000344,warehouse0344@example.com,14174,9897,retail,inactive,demo_data
WH-0345,Warehouse_0345,Loc_WH-0345_CanTho,CanTho,Vietnam,Manager_0025,0600000345,warehouse0345@example.com,5158,710,main,maintenance,demo_data
WH-0346,Warehouse_0346,Loc_WH-0346_Hue,Hue,Vietnam,Manager_0026,0600000346,warehouse0346@example.com,1360,293,regional,active,demo_data
WH-0347,Warehouse_0347,Loc_WH-0347_NhaTrang,NhaTrang,Vietnam,Manager_0027,0600000347,warehouse0347@example.com,14557,4539,distribution,inactive,demo_data
WH-0348,Warehouse_0348,Loc_WH-0348_VungTau,VungTau,Vietnam,Manager_0028,0600000348,warehouse0348@example.com,17768,15808,retail,maintenance,demo_data
WH-0349,Warehouse_0349,Loc_WH-0349_BinhDuong,BinhDuong,Vietnam,Manager_0029,0600000349,warehouse0349@example.com,7357,2682,main,active,demo_data
WH-0350,Warehouse_0350,Loc_WH-0350_BacNinh,BacNinh,Vietnam,Manager_0030,0600000350,warehouse0350@example.com,8167,7740,regional,inactive,demo_data
WH-0351,Warehouse_0351,Loc_WH-0351_HaNoi,HaNoi,Vietnam,Manager_0031,0600000351,warehouse0351@example.com,14831,9546,distribution,maintenance,demo_data
WH-0352,Warehouse_0352,Loc_WH-0352_HoChiMinh,HoChiMinh,Vietnam,Manager_0032,0600000352,warehouse0352@example.com,6702,868,retail,active,demo_data
WH-0353,Warehouse_0353,Loc_WH-0353_DaNang,DaNang,Vietnam,Manager_0033,0600000353,warehouse0353@example.com,1436,177,main,inactive,demo_data
WH-0354,Warehouse_0354,Loc_WH-0354_HaiPhong,HaiPhong,Vietnam,Manager_0034,0600000354,warehouse0354@example.com,7510,1176,regional,maintenance,demo_data
WH-0355,Warehouse_0355,Loc_WH-0355_CanTho,CanTho,Vietnam,Manager_0035,0600000355,warehouse0355@example.com,13377,9423,distribution,active,demo_data
WH-0356,Warehouse_0356,Loc_WH-0356_Hue,Hue,Vietnam,Manager_0036,0600000356,warehouse0356@example.com,15888,4990,retail,inactive,demo_data
WH-0357,Warehouse_0357,Loc_WH-0357_NhaTrang,NhaTrang,Vietnam,Manager_0037,0600000357,warehouse0357@example.com,15933,13606,main,maintenance,demo_data
WH-0358,Warehouse_0358,Loc_WH-0358_VungTau,VungTau,Vietnam,Manager_0038,0600000358,warehouse0358@example.com,7505,6768,regional,active,demo_data
WH-0359,Warehouse_0359,Loc_WH-0359_BinhDuong,BinhDuong,Vietnam,Manager_0039,0600000359,warehouse0359@example.com,4242,3239,distribution,inactive,demo_data
WH-0360,Warehouse_0360,Loc_WH-0360_BacNinh,BacNinh,Vietnam,Manager_0040,0600000360,warehouse0360@example.com,18767,13863,retail,maintenance,demo_data
WH-0361,Warehouse_0361,Loc_WH-0361_HaNoi,HaNoi,Vietnam,Manager_0001,0600000361,warehouse0361@example.com,5527,3320,main,active,demo_data
WH-0362,Warehouse_0362,Loc_WH-0362_HoChiMinh,HoChiMinh,Vietnam,Manager_0002,0600000362,warehouse0362@example.com,12832,10411,regional,inactive,demo_data
WH-0363,Warehouse_0363,Loc_WH-0363_DaNang,DaNang,Vietnam,Manager_0003,0600000363,warehouse0363@example.com,14823,12795,distribution,maintenance,demo_data
WH-0364,Warehouse_0364,Loc_WH-0364_HaiPhong,HaiPhong,Vietnam,Manager_0004,0600000364,warehouse0364@example.com,15333,15207,retail,active,demo_data
WH-0365,Warehouse_0365,Loc_WH-0365_CanTho,CanTho,Vietnam,Manager_0005,0600000365,warehouse0365@example.com,5724,2416,main,inactive,demo_data
WH-0366,Warehouse_0366,Loc_WH-0366_Hue,Hue,Vietnam,Manager_0006,0600000366,warehouse0366@example.com,3095,201,regional,maintenance,demo_data
WH-0367,Warehouse_0367,Loc_WH-0367_NhaTrang,NhaTrang,Vietnam,Manager_0007,0600000367,warehouse0367@example.com,16527,8834,distribution,active,demo_data
WH-0368,Warehouse_0368,Loc_WH-0368_VungTau,VungTau,Vietnam,Manager_0008,0600000368,warehouse0368@example.com,19330,8140,retail,inactive,demo_data
WH-0369,Warehouse_0369,Loc_WH-0369_BinhDuong,BinhDuong,Vietnam,Manager_0009,0600000369,warehouse0369@example.com,16702,15095,main,maintenance,demo_data
WH-0370,Warehouse_0370,Loc_WH-0370_BacNinh,BacNinh,Vietnam,Manager_0010,0600000370,warehouse0370@example.com,7605,1463,regional,active,demo_data
WH-0371,Warehouse_0371,Loc_WH-0371_HaNoi,HaNoi,Vietnam,Manager_0011,0600000371,warehouse0371@example.com,15649,8513,distribution,inactive,demo_data
WH-0372,Warehouse_0372,Loc_WH-0372_HoChiMinh,HoChiMinh,Vietnam,Manager_0012,0600000372,warehouse0372@example.com,6406,2648,retail,maintenance,demo_data
WH-0373,Warehouse_0373,Loc_WH-0373_DaNang,DaNang,Vietnam,Manager_0013,0600000373,warehouse0373@example.com,14123,5994,main,active,demo_data
WH-0374,Warehouse_0374,Loc_WH-0374_HaiPhong,HaiPhong,Vietnam,Manager_0014,0600000374,warehouse0374@example.com,2387,2073,regional,inactive,demo_data
WH-0375,Warehouse_0375,Loc_WH-0375_CanTho,CanTho,Vietnam,Manager_0015,0600000375,warehouse0375@example.com,18386,3600,distribution,maintenance,demo_data
WH-0376,Warehouse_0376,Loc_WH-0376_Hue,Hue,Vietnam,Manager_0016,0600000376,warehouse0376@example.com,7542,6937,retail,active,demo_data
WH-0377,Warehouse_0377,Loc_WH-0377_NhaTrang,NhaTrang,Vietnam,Manager_0017,0600000377,warehouse0377@example.com,10147,2816,main,inactive,demo_data
WH-0378,Warehouse_0378,Loc_WH-0378_VungTau,VungTau,Vietnam,Manager_0018,0600000378,warehouse0378@example.com,15287,13761,regional,maintenance,demo_data
WH-0379,Warehouse_0379,Loc_WH-0379_BinhDuong,BinhDuong,Vietnam,Manager_0019,0600000379,warehouse0379@example.com,8073,5431,distribution,active,demo_data
WH-0380,Warehouse_0380,Loc_WH-0380_BacNinh,BacNinh,Vietnam,Manager_0020,0600000380,warehouse0380@example.com,19242,10937,retail,inactive,demo_data
WH-0381,Warehouse_0381,Loc_WH-0381_HaNoi,HaNoi,Vietnam,Manager_0021,0600000381,warehouse0381@example.com,4637,1482,main,maintenance,demo_data
WH-0382,Warehouse_0382,Loc_WH-0382_HoChiMinh,HoChiMinh,Vietnam,Manager_0022,0600000382,warehouse0382@example.com,14356,6555,regional,active,demo_data
WH-0383,Warehouse_0383,Loc_WH-0383_DaNang,DaNang,Vietnam,Manager_0023,0600000383,warehouse0383@example.com,5428,4677,distribution,inactive,demo_data
WH-0384,Warehouse_0384,Loc_WH-0384_HaiPhong,HaiPhong,Vietnam,Manager_0024,0600000384,warehouse0384@example.com,7658,5499,retail,maintenance,demo_data
WH-0385,Warehouse_0385,Loc_WH-0385_CanTho,CanTho,Vietnam,Manager_0025,0600000385,warehouse0385@example.com,8783,6726,main,active,demo_data
WH-0386,Warehouse_0386,Loc_WH-0386_Hue,Hue,Vietnam,Manager_0026,0600000386,warehouse0386@example.com,15538,2232,regional,inactive,demo_data
WH-0387,Warehouse_0387,Loc_WH-0387_NhaTrang,NhaTrang,Vietnam,Manager_0027,0600000387,warehouse0387@example.com,17734,16204,distribution,maintenance,demo_data
WH-0388,Warehouse_0388,Loc_WH-0388_VungTau,VungTau,Vietnam,Manager_0028,0600000388,warehouse0388@example.com,17683,15322,retail,active,demo_data
WH-0389,Warehouse_0389,Loc_WH-0389_BinhDuong,BinhDuong,Vietnam,Manager_0029,0600000389,warehouse0389@example.com,6880,3267,main,inactive,demo_data
WH-0390,Warehouse_0390,Loc_WH-0390_BacNinh,BacNinh,Vietnam,Manager_0030,0600000390,warehouse0390@example.com,11046,1115,regional,maintenance,demo_data
WH-0391,Warehouse_0391,Loc_WH-0391_HaNoi,HaNoi,Vietnam,Manager_0031,0600000391,warehouse0391@example.com,17914,12395,distribution,active,demo_data
WH-0392,Warehouse_0392,Loc_WH-0392_HoChiMinh,HoChiMinh,Vietnam,Manager_0032,0600000392,warehouse0392@example.com,8510,2488,retail,inactive,demo_data
WH-0393,Warehouse_0393,Loc_WH-0393_DaNang,DaNang,Vietnam,Manager_0033,0600000393,warehouse0393@example.com,16349,4311,main,maintenance,demo_data
WH-0394,Warehouse_0394,Loc_WH-0394_HaiPhong,HaiPhong,Vietnam,Manager_0034,0600000394,warehouse0394@example.com,13328,5634,regional,active,demo_data
WH-0395,Warehouse_0395,Loc_WH-0395_CanTho,CanTho,Vietnam,Manager_0035,0600000395,warehouse0395@example.com,1999,1460,distribution,inactive,demo_data
WH-0396,Warehouse_0396,Loc_WH-0396_Hue,Hue,Vietnam,Manager_0036,0600000396,warehouse0396@example.com,15861,4572,retail,maintenance,demo_data
WH-0397,Warehouse_0397,Loc_WH-0397_NhaTrang,NhaTrang,Vietnam,Manager_0037,0600000397,warehouse0397@example.com,2728,1985,main,active,demo_data
WH-0398,Warehouse_0398,Loc_WH-0398_VungTau,VungTau,Vietnam,Manager_0038,0600000398,warehouse0398@example.com,1709,493,regional,inactive,demo_data
WH-0399,Warehouse_0399,Loc_WH-0399_BinhDuong,BinhDuong,Vietnam,Manager_0039,0600000399,warehouse0399@example.com,3988,1377,distribution,maintenance,demo_data
WH-0400,Warehouse_0400,Loc_WH-0400_BacNinh,BacNinh,Vietnam,Manager_0040,0600000400,warehouse0400@example.com,14344,11819,retail,active,demo_data
WH-0401,Warehouse_0401,Loc_WH-0401_HaNoi,HaNoi,Vietnam,Manager_0001,0600000401,warehouse0401@example.com,13113,7410,main,inactive,demo_data
WH-0402,Warehouse_0402,Loc_WH-0402_HoChiMinh,HoChiMinh,Vietnam,Manager_0002,0600000402,warehouse0402@example.com,10459,6218,regional,maintenance,demo_data
WH-0403,Warehouse_0403,Loc_WH-0403_DaNang,DaNang,Vietnam,Manager_0003,0600000403,warehouse0403@example.com,11482,3264,distribution,active,demo_data
WH-0404,Warehouse_0404,Loc_WH-0404_HaiPhong,HaiPhong,Vietnam,Manager_0004,0600000404,warehouse0404@example.com,8389,5012,retail,inactive,demo_data
WH-0405,Warehouse_0405,Loc_WH-0405_CanTho,CanTho,Vietnam,Manager_0005,0600000405,warehouse0405@example.com,8427,4251,main,maintenance,demo_data
WH-0406,Warehouse_0406,Loc_WH-0406_Hue,Hue,Vietnam,Manager_0006,0600000406,warehouse0406@example.com,11088,6423,regional,active,demo_data
WH-0407,Warehouse_0407,Loc_WH-0407_NhaTrang,NhaTrang,Vietnam,Manager_0007,0600000407,warehouse0407@example.com,8309,2902,distribution,inactive,demo_data
WH-0408,Warehouse_0408,Loc_WH-0408_VungTau,VungTau,Vietnam,Manager_0008,0600000408,warehouse0408@example.com,4453,2457,retail,maintenance,demo_data
WH-0409,Warehouse_0409,Loc_WH-0409_BinhDuong,BinhDuong,Vietnam,Manager_0009,0600000409,warehouse0409@example.com,507,470,main,active,demo_data
WH-0410,Warehouse_0410,Loc_WH-0410_BacNinh,BacNinh,Vietnam,Manager_0010,0600000410,warehouse0410@example.com,3355,2794,regional,inactive,demo_data
WH-0411,Warehouse_0411,Loc_WH-0411_HaNoi,HaNoi,Vietnam,Manager_0011,0600000411,warehouse0411@example.com,3108,73,distribution,maintenance,demo_data
WH-0412,Warehouse_0412,Loc_WH-0412_HoChiMinh,HoChiMinh,Vietnam,Manager_0012,0600000412,warehouse0412@example.com,11778,9568,retail,active,demo_data
WH-0413,Warehouse_0413,Loc_WH-0413_DaNang,DaNang,Vietnam,Manager_0013,0600000413,warehouse0413@example.com,17983,6862,main,inactive,demo_data
WH-0414,Warehouse_0414,Loc_WH-0414_HaiPhong,HaiPhong,Vietnam,Manager_0014,0600000414,warehouse0414@example.com,17652,2118,regional,maintenance,demo_data
WH-0415,Warehouse_0415,Loc_WH-0415_CanTho,CanTho,Vietnam,Manager_0015,0600000415,warehouse0415@example.com,11131,5194,distribution,active,demo_data
WH-0416,Warehouse_0416,Loc_WH-0416_Hue,Hue,Vietnam,Manager_0016,0600000416,warehouse0416@example.com,3195,793,retail,inactive,demo_data
WH-0417,Warehouse_0417,Loc_WH-0417_NhaTrang,NhaTrang,Vietnam,Manager_0017,0600000417,warehouse0417@example.com,3636,1193,main,maintenance,demo_data
WH-0418,Warehouse_0418,Loc_WH-0418_VungTau,VungTau,Vietnam,Manager_0018,0600000418,warehouse0418@example.com,9998,3168,regional,active,demo_data
WH-0419,Warehouse_0419,Loc_WH-0419_BinhDuong,BinhDuong,Vietnam,Manager_0019,0600000419,warehouse0419@example.com,6024,4913,distribution,inactive,demo_data
WH-0420,Warehouse_0420,Loc_WH-0420_BacNinh,BacNinh,Vietnam,Manager_0020,0600000420,warehouse0420@example.com,14652,4501,retail,maintenance,demo_data
WH-0421,Warehouse_0421,Loc_WH-0421_HaNoi,HaNoi,Vietnam,Manager_0021,0600000421,warehouse0421@example.com,4855,3440,main,active,demo_data
WH-0422,Warehouse_0422,Loc_WH-0422_HoChiMinh,HoChiMinh,Vietnam,Manager_0022,0600000422,warehouse0422@example.com,3489,3231,regional,inactive,demo_data
WH-0423,Warehouse_0423,Loc_WH-0423_DaNang,DaNang,Vietnam,Manager_0023,0600000423,warehouse0423@example.com,15819,4317,distribution,maintenance,demo_data
WH-0424,Warehouse_0424,Loc_WH-0424_HaiPhong,HaiPhong,Vietnam,Manager_0024,0600000424,warehouse0424@example.com,12547,9185,retail,active,demo_data
WH-0425,Warehouse_0425,Loc_WH-0425_CanTho,CanTho,Vietnam,Manager_0025,0600000425,warehouse0425@example.com,8685,3908,main,inactive,demo_data
WH-0426,Warehouse_0426,Loc_WH-0426_Hue,Hue,Vietnam,Manager_0026,0600000426,warehouse0426@example.com,3109,28,regional,maintenance,demo_data
WH-0427,Warehouse_0427,Loc_WH-0427_NhaTrang,NhaTrang,Vietnam,Manager_0027,0600000427,warehouse0427@example.com,16554,12072,distribution,active,demo_data
WH-0428,Warehouse_0428,Loc_WH-0428_VungTau,VungTau,Vietnam,Manager_0028,0600000428,warehouse0428@example.com,14846,10679,retail,inactive,demo_data
WH-0429,Warehouse_0429,Loc_WH-0429_BinhDuong,BinhDuong,Vietnam,Manager_0029,0600000429,warehouse0429@example.com,1942,113,main,maintenance,demo_data
WH-0430,Warehouse_0430,Loc_WH-0430_BacNinh,BacNinh,Vietnam,Manager_0030,0600000430,warehouse0430@example.com,16136,3976,regional,active,demo_data
WH-0431,Warehouse_0431,Loc_WH-0431_HaNoi,HaNoi,Vietnam,Manager_0031,0600000431,warehouse0431@example.com,13727,4627,distribution,inactive,demo_data
WH-0432,Warehouse_0432,Loc_WH-0432_HoChiMinh,HoChiMinh,Vietnam,Manager_0032,0600000432,warehouse0432@example.com,2201,1548,retail,maintenance,demo_data
WH-0433,Warehouse_0433,Loc_WH-0433_DaNang,DaNang,Vietnam,Manager_0033,0600000433,warehouse0433@example.com,13472,3815,main,active,demo_data
WH-0434,Warehouse_0434,Loc_WH-0434_HaiPhong,HaiPhong,Vietnam,Manager_0034,0600000434,warehouse0434@example.com,15578,5519,regional,inactive,demo_data
WH-0435,Warehouse_0435,Loc_WH-0435_CanTho,CanTho,Vietnam,Manager_0035,0600000435,warehouse0435@example.com,5430,1191,distribution,maintenance,demo_data
WH-0436,Warehouse_0436,Loc_WH-0436_Hue,Hue,Vietnam,Manager_0036,0600000436,warehouse0436@example.com,15991,6590,retail,active,demo_data
WH-0437,Warehouse_0437,Loc_WH-0437_NhaTrang,NhaTrang,Vietnam,Manager_0037,0600000437,warehouse0437@example.com,10261,7436,main,inactive,demo_data
WH-0438,Warehouse_0438,Loc_WH-0438_VungTau,VungTau,Vietnam,Manager_0038,0600000438,warehouse0438@example.com,16704,13359,regional,maintenance,demo_data
WH-0439,Warehouse_0439,Loc_WH-0439_BinhDuong,BinhDuong,Vietnam,Manager_0039,0600000439,warehouse0439@example.com,9509,1506,distribution,active,demo_data
WH-0440,Warehouse_0440,Loc_WH-0440_BacNinh,BacNinh,Vietnam,Manager_0040,0600000440,warehouse0440@example.com,2514,254,retail,inactive,demo_data
WH-0441,Warehouse_0441,Loc_WH-0441_HaNoi,HaNoi,Vietnam,Manager_0001,0600000441,warehouse0441@example.com,1044,411,main,maintenance,demo_data
WH-0442,Warehouse_0442,Loc_WH-0442_HoChiMinh,HoChiMinh,Vietnam,Manager_0002,0600000442,warehouse0442@example.com,15856,11060,regional,active,demo_data
WH-0443,Warehouse_0443,Loc_WH-0443_DaNang,DaNang,Vietnam,Manager_0003,0600000443,warehouse0443@example.com,7414,6129,distribution,inactive,demo_data
WH-0444,Warehouse_0444,Loc_WH-0444_HaiPhong,HaiPhong,Vietnam,Manager_0004,0600000444,warehouse0444@example.com,6757,6488,retail,maintenance,demo_data
WH-0445,Warehouse_0445,Loc_WH-0445_CanTho,CanTho,Vietnam,Manager_0005,0600000445,warehouse0445@example.com,2604,2157,main,active,demo_data
WH-0446,Warehouse_0446,Loc_WH-0446_Hue,Hue,Vietnam,Manager_0006,0600000446,warehouse0446@example.com,14965,23,regional,inactive,demo_data
WH-0447,Warehouse_0447,Loc_WH-0447_NhaTrang,NhaTrang,Vietnam,Manager_0007,0600000447,warehouse0447@example.com,6842,1163,distribution,maintenance,demo_data
WH-0448,Warehouse_0448,Loc_WH-0448_VungTau,VungTau,Vietnam,Manager_0008,0600000448,warehouse0448@example.com,15050,1729,retail,active,demo_data
WH-0449,Warehouse_0449,Loc_WH-0449_BinhDuong,BinhDuong,Vietnam,Manager_0009,0600000449,warehouse0449@example.com,3116,393,main,inactive,demo_data
WH-0450,Warehouse_0450,Loc_WH-0450_BacNinh,BacNinh,Vietnam,Manager_0010,0600000450,warehouse0450@example.com,14006,3481,regional,maintenance,demo_data
WH-0451,Warehouse_0451,Loc_WH-0451_HaNoi,HaNoi,Vietnam,Manager_0011,0600000451,warehouse0451@example.com,5056,4286,distribution,active,demo_data
WH-0452,Warehouse_0452,Loc_WH-0452_HoChiMinh,HoChiMinh,Vietnam,Manager_0012,0600000452,warehouse0452@example.com,1431,619,retail,inactive,demo_data
WH-0453,Warehouse_0453,Loc_WH-0453_DaNang,DaNang,Vietnam,Manager_0013,0600000453,warehouse0453@example.com,11206,406,main,maintenance,demo_data
WH-0454,Warehouse_0454,Loc_WH-0454_HaiPhong,HaiPhong,Vietnam,Manager_0014,0600000454,warehouse0454@example.com,19908,18745,regional,active,demo_data
WH-0455,Warehouse_0455,Loc_WH-0455_CanTho,CanTho,Vietnam,Manager_0015,0600000455,warehouse0455@example.com,17878,12287,distribution,inactive,demo_data
WH-0456,Warehouse_0456,Loc_WH-0456_Hue,Hue,Vietnam,Manager_0016,0600000456,warehouse0456@example.com,5529,1110,retail,maintenance,demo_data
WH-0457,Warehouse_0457,Loc_WH-0457_NhaTrang,NhaTrang,Vietnam,Manager_0017,0600000457,warehouse0457@example.com,6916,2264,main,active,demo_data
WH-0458,Warehouse_0458,Loc_WH-0458_VungTau,VungTau,Vietnam,Manager_0018,0600000458,warehouse0458@example.com,1323,349,regional,inactive,demo_data
WH-0459,Warehouse_0459,Loc_WH-0459_BinhDuong,BinhDuong,Vietnam,Manager_0019,0600000459,warehouse0459@example.com,18580,5199,distribution,maintenance,demo_data
WH-0460,Warehouse_0460,Loc_WH-0460_BacNinh,BacNinh,Vietnam,Manager_0020,0600000460,warehouse0460@example.com,18090,2599,retail,active,demo_data
WH-0461,Warehouse_0461,Loc_WH-0461_HaNoi,HaNoi,Vietnam,Manager_0021,0600000461,warehouse0461@example.com,8335,5032,main,inactive,demo_data
WH-0462,Warehouse_0462,Loc_WH-0462_HoChiMinh,HoChiMinh,Vietnam,Manager_0022,0600000462,warehouse0462@example.com,732,437,regional,maintenance,demo_data
WH-0463,Warehouse_0463,Loc_WH-0463_DaNang,DaNang,Vietnam,Manager_0023,0600000463,warehouse0463@example.com,19073,4696,distribution,active,demo_data
WH-0464,Warehouse_0464,Loc_WH-0464_HaiPhong,HaiPhong,Vietnam,Manager_0024,0600000464,warehouse0464@example.com,10134,8356,retail,inactive,demo_data
WH-0465,Warehouse_0465,Loc_WH-0465_CanTho,CanTho,Vietnam,Manager_0025,0600000465,warehouse0465@example.com,2201,1579,main,maintenance,demo_data
WH-0466,Warehouse_0466,Loc_WH-0466_Hue,Hue,Vietnam,Manager_0026,0600000466,warehouse0466@example.com,7202,6974,regional,active,demo_data
WH-0467,Warehouse_0467,Loc_WH-0467_NhaTrang,NhaTrang,Vietnam,Manager_0027,0600000467,warehouse0467@example.com,9408,1919,distribution,inactive,demo_data
WH-0468,Warehouse_0468,Loc_WH-0468_VungTau,VungTau,Vietnam,Manager_0028,0600000468,warehouse0468@example.com,13158,177,retail,maintenance,demo_data
WH-0469,Warehouse_0469,Loc_WH-0469_BinhDuong,BinhDuong,Vietnam,Manager_0029,0600000469,warehouse0469@example.com,13984,10839,main,active,demo_data
WH-0470,Warehouse_0470,Loc_WH-0470_BacNinh,BacNinh,Vietnam,Manager_0030,0600000470,warehouse0470@example.com,3411,2057,regional,inactive,demo_data
WH-0471,Warehouse_0471,Loc_WH-0471_HaNoi,HaNoi,Vietnam,Manager_0031,0600000471,warehouse0471@example.com,16542,2302,distribution,maintenance,demo_data
WH-0472,Warehouse_0472,Loc_WH-0472_HoChiMinh,HoChiMinh,Vietnam,Manager_0032,0600000472,warehouse0472@example.com,11203,7285,retail,active,demo_data
WH-0473,Warehouse_0473,Loc_WH-0473_DaNang,DaNang,Vietnam,Manager_0033,0600000473,warehouse0473@example.com,12962,12729,main,inactive,demo_data
WH-0474,Warehouse_0474,Loc_WH-0474_HaiPhong,HaiPhong,Vietnam,Manager_0034,0600000474,warehouse0474@example.com,1821,1591,regional,maintenance,demo_data
WH-0475,Warehouse_0475,Loc_WH-0475_CanTho,CanTho,Vietnam,Manager_0035,0600000475,warehouse0475@example.com,14334,1345,distribution,active,demo_data
WH-0476,Warehouse_0476,Loc_WH-0476_Hue,Hue,Vietnam,Manager_0036,0600000476,warehouse0476@example.com,8822,923,retail,inactive,demo_data
WH-0477,Warehouse_0477,Loc_WH-0477_NhaTrang,NhaTrang,Vietnam,Manager_0037,0600000477,warehouse0477@example.com,10923,8875,main,maintenance,demo_data
WH-0478,Warehouse_0478,Loc_WH-0478_VungTau,VungTau,Vietnam,Manager_0038,0600000478,warehouse0478@example.com,16033,5795,regional,active,demo_data
WH-0479,Warehouse_0479,Loc_WH-0479_BinhDuong,BinhDuong,Vietnam,Manager_0039,0600000479,warehouse0479@example.com,8827,6006,distribution,inactive,demo_data
WH-0480,Warehouse_0480,Loc_WH-0480_BacNinh,BacNinh,Vietnam,Manager_0040,0600000480,warehouse0480@example.com,14215,33,retail,maintenance,demo_data
WH-0481,Warehouse_0481,Loc_WH-0481_HaNoi,HaNoi,Vietnam,Manager_0001,0600000481,warehouse0481@example.com,1142,538,main,active,demo_data
WH-0482,Warehouse_0482,Loc_WH-0482_HoChiMinh,HoChiMinh,Vietnam,Manager_0002,0600000482,warehouse0482@example.com,16465,180,regional,inactive,demo_data
WH-0483,Warehouse_0483,Loc_WH-0483_DaNang,DaNang,Vietnam,Manager_0003,0600000483,warehouse0483@example.com,14667,12531,distribution,maintenance,demo_data
WH-0484,Warehouse_0484,Loc_WH-0484_HaiPhong,HaiPhong,Vietnam,Manager_0004,0600000484,warehouse0484@example.com,11971,1442,retail,active,demo_data
WH-0485,Warehouse_0485,Loc_WH-0485_CanTho,CanTho,Vietnam,Manager_0005,0600000485,warehouse0485@example.com,1521,404,main,inactive,demo_data
WH-0486,Warehouse_0486,Loc_WH-0486_Hue,Hue,Vietnam,Manager_0006,0600000486,warehouse0486@example.com,11916,8238,regional,maintenance,demo_data
WH-0487,Warehouse_0487,Loc_WH-0487_NhaTrang,NhaTrang,Vietnam,Manager_0007,0600000487,warehouse0487@example.com,2049,75,distribution,active,demo_data
WH-0488,Warehouse_0488,Loc_WH-0488_VungTau,VungTau,Vietnam,Manager_0008,0600000488,warehouse0488@example.com,1844,459,retail,inactive,demo_data
WH-0489,Warehouse_0489,Loc_WH-0489_BinhDuong,BinhDuong,Vietnam,Manager_0009,0600000489,warehouse0489@example.com,15184,13338,main,maintenance,demo_data
WH-0490,Warehouse_0490,Loc_WH-0490_BacNinh,BacNinh,Vietnam,Manager_0010,0600000490,warehouse0490@example.com,14275,205,regional,active,demo_data
WH-0491,Warehouse_0491,Loc_WH-0491_HaNoi,HaNoi,Vietnam,Manager_0011,0600000491,warehouse0491@example.com,13212,2123,distribution,inactive,demo_data
WH-0492,Warehouse_0492,Loc_WH-0492_HoChiMinh,HoChiMinh,Vietnam,Manager_0012,0600000492,warehouse0492@example.com,11434,7981,retail,maintenance,demo_data
WH-0493,Warehouse_0493,Loc_WH-0493_DaNang,DaNang,Vietnam,Manager_0013,0600000493,warehouse0493@example.com,14030,13364,main,active,demo_data
WH-0494,Warehouse_0494,Loc_WH-0494_HaiPhong,HaiPhong,Vietnam,Manager_0014,0600000494,warehouse0494@example.com,5552,2072,regional,inactive,demo_data
WH-0495,Warehouse_0495,Loc_WH-0495_CanTho,CanTho,Vietnam,Manager_0015,0600000495,warehouse0495@example.com,13212,2285,distribution,maintenance,demo_data
WH-0496,Warehouse_0496,Loc_WH-0496_Hue,Hue,Vietnam,Manager_0016,0600000496,warehouse0496@example.com,9736,6694,retail,active,demo_data
WH-0497,Warehouse_0497,Loc_WH-0497_NhaTrang,NhaTrang,Vietnam,Manager_0017,0600000497,warehouse0497@example.com,17000,15832,main,inactive,demo_data
WH-0498,Warehouse_0498,Loc_WH-0498_VungTau,VungTau,Vietnam,Manager_0018,0600000498,warehouse0498@example.com,10211,7783,regional,maintenance,demo_data
WH-0499,Warehouse_0499,Loc_WH-0499_BinhDuong,BinhDuong,Vietnam,Manager_0019,0600000499,warehouse0499@example.com,4436,4269,distribution,active,demo_data
WH-0500,Warehouse_0500,Loc_WH-0500_BacNinh,BacNinh,Vietnam,Manager_0020,0600000500,warehouse0500@example.com,19569,16719,retail,inactive,demo_data
WH-0501,Warehouse_0501,Loc_WH-0501_HaNoi,HaNoi,Vietnam,Manager_0021,0600000501,warehouse0501@example.com,17734,15992,main,maintenance,demo_data
WH-0502,Warehouse_0502,Loc_WH-0502_HoChiMinh,HoChiMinh,Vietnam,Manager_0022,0600000502,warehouse0502@example.com,7171,3381,regional,active,demo_data
WH-0503,Warehouse_0503,Loc_WH-0503_DaNang,DaNang,Vietnam,Manager_0023,0600000503,warehouse0503@example.com,1388,1320,distribution,inactive,demo_data
WH-0504,Warehouse_0504,Loc_WH-0504_HaiPhong,HaiPhong,Vietnam,Manager_0024,0600000504,warehouse0504@example.com,1679,1140,retail,maintenance,demo_data
WH-0505,Warehouse_0505,Loc_WH-0505_CanTho,CanTho,Vietnam,Manager_0025,0600000505,warehouse0505@example.com,16577,1661,main,active,demo_data
WH-0506,Warehouse_0506,Loc_WH-0506_Hue,Hue,Vietnam,Manager_0026,0600000506,warehouse0506@example.com,4764,2723,regional,inactive,demo_data
WH-0507,Warehouse_0507,Loc_WH-0507_NhaTrang,NhaTrang,Vietnam,Manager_0027,0600000507,warehouse0507@example.com,9831,5768,distribution,maintenance,demo_data
WH-0508,Warehouse_0508,Loc_WH-0508_VungTau,VungTau,Vietnam,Manager_0028,0600000508,warehouse0508@example.com,9271,7360,retail,active,demo_data
WH-0509,Warehouse_0509,Loc_WH-0509_BinhDuong,BinhDuong,Vietnam,Manager_0029,0600000509,warehouse0509@example.com,19933,4738,main,inactive,demo_data
WH-0510,Warehouse_0510,Loc_WH-0510_BacNinh,BacNinh,Vietnam,Manager_0030,0600000510,warehouse0510@example.com,17466,11767,regional,maintenance,demo_data
WH-0511,Warehouse_0511,Loc_WH-0511_HaNoi,HaNoi,Vietnam,Manager_0031,0600000511,warehouse0511@example.com,15531,8187,distribution,active,demo_data
WH-0512,Warehouse_0512,Loc_WH-0512_HoChiMinh,HoChiMinh,Vietnam,Manager_0032,0600000512,warehouse0512@example.com,6724,3411,retail,inactive,demo_data
WH-0513,Warehouse_0513,Loc_WH-0513_DaNang,DaNang,Vietnam,Manager_0033,0600000513,warehouse0513@example.com,11256,9271,main,maintenance,demo_data
WH-0514,Warehouse_0514,Loc_WH-0514_HaiPhong,HaiPhong,Vietnam,Manager_0034,0600000514,warehouse0514@example.com,3596,2861,regional,active,demo_data
WH-0515,Warehouse_0515,Loc_WH-0515_CanTho,CanTho,Vietnam,Manager_0035,0600000515,warehouse0515@example.com,6603,3504,distribution,inactive,demo_data
WH-0516,Warehouse_0516,Loc_WH-0516_Hue,Hue,Vietnam,Manager_0036,0600000516,warehouse0516@example.com,4808,3007,retail,maintenance,demo_data
WH-0517,Warehouse_0517,Loc_WH-0517_NhaTrang,NhaTrang,Vietnam,Manager_0037,0600000517,warehouse0517@example.com,13476,13199,main,active,demo_data
WH-0518,Warehouse_0518,Loc_WH-0518_VungTau,VungTau,Vietnam,Manager_0038,0600000518,warehouse0518@example.com,13734,1211,regional,inactive,demo_data
WH-0519,Warehouse_0519,Loc_WH-0519_BinhDuong,BinhDuong,Vietnam,Manager_0039,0600000519,warehouse0519@example.com,12649,298,distribution,maintenance,demo_data
WH-0520,Warehouse_0520,Loc_WH-0520_BacNinh,BacNinh,Vietnam,Manager_0040,0600000520,warehouse0520@example.com,6943,3380,retail,active,demo_data
WH-0521,Warehouse_0521,Loc_WH-0521_HaNoi,HaNoi,Vietnam,Manager_0001,0600000521,warehouse0521@example.com,14476,12931,main,inactive,demo_data
WH-0522,Warehouse_0522,Loc_WH-0522_HoChiMinh,HoChiMinh,Vietnam,Manager_0002,0600000522,warehouse0522@example.com,19411,3237,regional,maintenance,demo_data
WH-0523,Warehouse_0523,Loc_WH-0523_DaNang,DaNang,Vietnam,Manager_0003,0600000523,warehouse0523@example.com,5640,672,distribution,active,demo_data
WH-0524,Warehouse_0524,Loc_WH-0524_HaiPhong,HaiPhong,Vietnam,Manager_0004,0600000524,warehouse0524@example.com,8675,3395,retail,inactive,demo_data
WH-0525,Warehouse_0525,Loc_WH-0525_CanTho,CanTho,Vietnam,Manager_0005,0600000525,warehouse0525@example.com,16462,11195,main,maintenance,demo_data
WH-0526,Warehouse_0526,Loc_WH-0526_Hue,Hue,Vietnam,Manager_0006,0600000526,warehouse0526@example.com,18848,3039,regional,active,demo_data
WH-0527,Warehouse_0527,Loc_WH-0527_NhaTrang,NhaTrang,Vietnam,Manager_0007,0600000527,warehouse0527@example.com,6312,3734,distribution,inactive,demo_data
WH-0528,Warehouse_0528,Loc_WH-0528_VungTau,VungTau,Vietnam,Manager_0008,0600000528,warehouse0528@example.com,13488,4560,retail,maintenance,demo_data
WH-0529,Warehouse_0529,Loc_WH-0529_BinhDuong,BinhDuong,Vietnam,Manager_0009,0600000529,warehouse0529@example.com,9724,1400,main,active,demo_data
WH-0530,Warehouse_0530,Loc_WH-0530_BacNinh,BacNinh,Vietnam,Manager_0010,0600000530,warehouse0530@example.com,9033,1264,regional,inactive,demo_data
WH-0531,Warehouse_0531,Loc_WH-0531_HaNoi,HaNoi,Vietnam,Manager_0011,0600000531,warehouse0531@example.com,18432,8728,distribution,maintenance,demo_data
WH-0532,Warehouse_0532,Loc_WH-0532_HoChiMinh,HoChiMinh,Vietnam,Manager_0012,0600000532,warehouse0532@example.com,19264,18432,retail,active,demo_data
WH-0533,Warehouse_0533,Loc_WH-0533_DaNang,DaNang,Vietnam,Manager_0013,0600000533,warehouse0533@example.com,8497,914,main,inactive,demo_data
WH-0534,Warehouse_0534,Loc_WH-0534_HaiPhong,HaiPhong,Vietnam,Manager_0014,0600000534,warehouse0534@example.com,7806,6736,regional,maintenance,demo_data
WH-0535,Warehouse_0535,Loc_WH-0535_CanTho,CanTho,Vietnam,Manager_0015,0600000535,warehouse0535@example.com,11593,373,distribution,active,demo_data
WH-0536,Warehouse_0536,Loc_WH-0536_Hue,Hue,Vietnam,Manager_0016,0600000536,warehouse0536@example.com,13117,12491,retail,inactive,demo_data
WH-0537,Warehouse_0537,Loc_WH-0537_NhaTrang,NhaTrang,Vietnam,Manager_0017,0600000537,warehouse0537@example.com,2739,558,main,maintenance,demo_data
WH-0538,Warehouse_0538,Loc_WH-0538_VungTau,VungTau,Vietnam,Manager_0018,0600000538,warehouse0538@example.com,18351,14918,regional,active,demo_data
WH-0539,Warehouse_0539,Loc_WH-0539_BinhDuong,BinhDuong,Vietnam,Manager_0019,0600000539,warehouse0539@example.com,19881,8006,distribution,inactive,demo_data
WH-0540,Warehouse_0540,Loc_WH-0540_BacNinh,BacNinh,Vietnam,Manager_0020,0600000540,warehouse0540@example.com,6880,4637,retail,maintenance,demo_data
WH-0541,Warehouse_0541,Loc_WH-0541_HaNoi,HaNoi,Vietnam,Manager_0021,0600000541,warehouse0541@example.com,6100,625,main,active,demo_data
WH-0542,Warehouse_0542,Loc_WH-0542_HoChiMinh,HoChiMinh,Vietnam,Manager_0022,0600000542,warehouse0542@example.com,11007,8644,regional,inactive,demo_data
WH-0543,Warehouse_0543,Loc_WH-0543_DaNang,DaNang,Vietnam,Manager_0023,0600000543,warehouse0543@example.com,1461,674,distribution,maintenance,demo_data
WH-0544,Warehouse_0544,Loc_WH-0544_HaiPhong,HaiPhong,Vietnam,Manager_0024,0600000544,warehouse0544@example.com,13207,9546,retail,active,demo_data
WH-0545,Warehouse_0545,Loc_WH-0545_CanTho,CanTho,Vietnam,Manager_0025,0600000545,warehouse0545@example.com,846,159,main,inactive,demo_data
WH-0546,Warehouse_0546,Loc_WH-0546_Hue,Hue,Vietnam,Manager_0026,0600000546,warehouse0546@example.com,7646,7320,regional,maintenance,demo_data
WH-0547,Warehouse_0547,Loc_WH-0547_NhaTrang,NhaTrang,Vietnam,Manager_0027,0600000547,warehouse0547@example.com,6883,4039,distribution,active,demo_data
WH-0548,Warehouse_0548,Loc_WH-0548_VungTau,VungTau,Vietnam,Manager_0028,0600000548,warehouse0548@example.com,12330,3875,retail,inactive,demo_data
WH-0549,Warehouse_0549,Loc_WH-0549_BinhDuong,BinhDuong,Vietnam,Manager_0029,0600000549,warehouse0549@example.com,12519,8579,main,maintenance,demo_data
WH-0550,Warehouse_0550,Loc_WH-0550_BacNinh,BacNinh,Vietnam,Manager_0030,0600000550,warehouse0550@example.com,2847,1134,regional,active,demo_data
WH-0551,Warehouse_0551,Loc_WH-0551_HaNoi,HaNoi,Vietnam,Manager_0031,0600000551,warehouse0551@example.com,13352,3099,distribution,inactive,demo_data
WH-0552,Warehouse_0552,Loc_WH-0552_HoChiMinh,HoChiMinh,Vietnam,Manager_0032,0600000552,warehouse0552@example.com,5923,3775,retail,maintenance,demo_data
WH-0553,Warehouse_0553,Loc_WH-0553_DaNang,DaNang,Vietnam,Manager_0033,0600000553,warehouse0553@example.com,5068,4497,main,active,demo_data
WH-0554,Warehouse_0554,Loc_WH-0554_HaiPhong,HaiPhong,Vietnam,Manager_0034,0600000554,warehouse0554@example.com,17386,449,regional,inactive,demo_data
WH-0555,Warehouse_0555,Loc_WH-0555_CanTho,CanTho,Vietnam,Manager_0035,0600000555,warehouse0555@example.com,3524,2357,distribution,maintenance,demo_data
WH-0556,Warehouse_0556,Loc_WH-0556_Hue,Hue,Vietnam,Manager_0036,0600000556,warehouse0556@example.com,16888,406,retail,active,demo_data
WH-0557,Warehouse_0557,Loc_WH-0557_NhaTrang,NhaTrang,Vietnam,Manager_0037,0600000557,warehouse0557@example.com,9810,3856,main,inactive,demo_data
WH-0558,Warehouse_0558,Loc_WH-0558_VungTau,VungTau,Vietnam,Manager_0038,0600000558,warehouse0558@example.com,18637,6590,regional,maintenance,demo_data
WH-0559,Warehouse_0559,Loc_WH-0559_BinhDuong,BinhDuong,Vietnam,Manager_0039,0600000559,warehouse0559@example.com,12324,1144,distribution,active,demo_data
WH-0560,Warehouse_0560,Loc_WH-0560_BacNinh,BacNinh,Vietnam,Manager_0040,0600000560,warehouse0560@example.com,4570,1768,retail,inactive,demo_data
WH-0561,Warehouse_0561,Loc_WH-0561_HaNoi,HaNoi,Vietnam,Manager_0001,0600000561,warehouse0561@example.com,10601,2659,main,maintenance,demo_data
WH-0562,Warehouse_0562,Loc_WH-0562_HoChiMinh,HoChiMinh,Vietnam,Manager_0002,0600000562,warehouse0562@example.com,915,195,regional,active,demo_data
WH-0563,Warehouse_0563,Loc_WH-0563_DaNang,DaNang,Vietnam,Manager_0003,0600000563,warehouse0563@example.com,13563,2920,distribution,inactive,demo_data
WH-0564,Warehouse_0564,Loc_WH-0564_HaiPhong,HaiPhong,Vietnam,Manager_0004,0600000564,warehouse0564@example.com,10648,3870,retail,maintenance,demo_data
WH-0565,Warehouse_0565,Loc_WH-0565_CanTho,CanTho,Vietnam,Manager_0005,0600000565,warehouse0565@example.com,7811,1571,main,active,demo_data
WH-0566,Warehouse_0566,Loc_WH-0566_Hue,Hue,Vietnam,Manager_0006,0600000566,warehouse0566@example.com,11799,10850,regional,inactive,demo_data
WH-0567,Warehouse_0567,Loc_WH-0567_NhaTrang,NhaTrang,Vietnam,Manager_0007,0600000567,warehouse0567@example.com,11177,4386,distribution,maintenance,demo_data
WH-0568,Warehouse_0568,Loc_WH-0568_VungTau,VungTau,Vietnam,Manager_0008,0600000568,warehouse0568@example.com,14218,12157,retail,active,demo_data
WH-0569,Warehouse_0569,Loc_WH-0569_BinhDuong,BinhDuong,Vietnam,Manager_0009,0600000569,warehouse0569@example.com,18799,459,main,inactive,demo_data
WH-0570,Warehouse_0570,Loc_WH-0570_BacNinh,BacNinh,Vietnam,Manager_0010,0600000570,warehouse0570@example.com,18988,12879,regional,maintenance,demo_data
WH-0571,Warehouse_0571,Loc_WH-0571_HaNoi,HaNoi,Vietnam,Manager_0011,0600000571,warehouse0571@example.com,2926,1171,distribution,active,demo_data
WH-0572,Warehouse_0572,Loc_WH-0572_HoChiMinh,HoChiMinh,Vietnam,Manager_0012,0600000572,warehouse0572@example.com,11380,2902,retail,inactive,demo_data
WH-0573,Warehouse_0573,Loc_WH-0573_DaNang,DaNang,Vietnam,Manager_0013,0600000573,warehouse0573@example.com,9664,3721,main,maintenance,demo_data
WH-0574,Warehouse_0574,Loc_WH-0574_HaiPhong,HaiPhong,Vietnam,Manager_0014,0600000574,warehouse0574@example.com,10649,10447,regional,active,demo_data
WH-0575,Warehouse_0575,Loc_WH-0575_CanTho,CanTho,Vietnam,Manager_0015,0600000575,warehouse0575@example.com,11923,9156,distribution,inactive,demo_data
WH-0576,Warehouse_0576,Loc_WH-0576_Hue,Hue,Vietnam,Manager_0016,0600000576,warehouse0576@example.com,15252,7632,retail,maintenance,demo_data
WH-0577,Warehouse_0577,Loc_WH-0577_NhaTrang,NhaTrang,Vietnam,Manager_0017,0600000577,warehouse0577@example.com,15191,4222,main,active,demo_data
WH-0578,Warehouse_0578,Loc_WH-0578_VungTau,VungTau,Vietnam,Manager_0018,0600000578,warehouse0578@example.com,2491,1923,regional,inactive,demo_data
WH-0579,Warehouse_0579,Loc_WH-0579_BinhDuong,BinhDuong,Vietnam,Manager_0019,0600000579,warehouse0579@example.com,9854,2825,distribution,maintenance,demo_data
WH-0580,Warehouse_0580,Loc_WH-0580_BacNinh,BacNinh,Vietnam,Manager_0020,0600000580,warehouse0580@example.com,13670,3842,retail,active,demo_data
WH-0581,Warehouse_0581,Loc_WH-0581_HaNoi,HaNoi,Vietnam,Manager_0021,0600000581,warehouse0581@example.com,4652,2702,main,inactive,demo_data
WH-0582,Warehouse_0582,Loc_WH-0582_HoChiMinh,HoChiMinh,Vietnam,Manager_0022,0600000582,warehouse0582@example.com,7877,4385,regional,maintenance,demo_data
WH-0583,Warehouse_0583,Loc_WH-0583_DaNang,DaNang,Vietnam,Manager_0023,0600000583,warehouse0583@example.com,11874,3602,distribution,active,demo_data
WH-0584,Warehouse_0584,Loc_WH-0584_HaiPhong,HaiPhong,Vietnam,Manager_0024,0600000584,warehouse0584@example.com,14202,12952,retail,inactive,demo_data
WH-0585,Warehouse_0585,Loc_WH-0585_CanTho,CanTho,Vietnam,Manager_0025,0600000585,warehouse0585@example.com,10103,282,main,maintenance,demo_data
WH-0586,Warehouse_0586,Loc_WH-0586_Hue,Hue,Vietnam,Manager_0026,0600000586,warehouse0586@example.com,3258,1217,regional,active,demo_data
WH-0587,Warehouse_0587,Loc_WH-0587_NhaTrang,NhaTrang,Vietnam,Manager_0027,0600000587,warehouse0587@example.com,18138,7253,distribution,inactive,demo_data
WH-0588,Warehouse_0588,Loc_WH-0588_VungTau,VungTau,Vietnam,Manager_0028,0600000588,warehouse0588@example.com,892,687,retail,maintenance,demo_data
WH-0589,Warehouse_0589,Loc_WH-0589_BinhDuong,BinhDuong,Vietnam,Manager_0029,0600000589,warehouse0589@example.com,15419,9218,main,active,demo_data
WH-0590,Warehouse_0590,Loc_WH-0590_BacNinh,BacNinh,Vietnam,Manager_0030,0600000590,warehouse0590@example.com,13485,286,regional,inactive,demo_data
WH-0591,Warehouse_0591,Loc_WH-0591_HaNoi,HaNoi,Vietnam,Manager_0031,0600000591,warehouse0591@example.com,18452,2623,distribution,maintenance,demo_data
WH-0592,Warehouse_0592,Loc_WH-0592_HoChiMinh,HoChiMinh,Vietnam,Manager_0032,0600000592,warehouse0592@example.com,6092,392,retail,active,demo_data
WH-0593,Warehouse_0593,Loc_WH-0593_DaNang,DaNang,Vietnam,Manager_0033,0600000593,warehouse0593@example.com,18700,18404,main,inactive,demo_data
WH-0594,Warehouse_0594,Loc_WH-0594_HaiPhong,HaiPhong,Vietnam,Manager_0034,0600000594,warehouse0594@example.com,4472,2427,regional,maintenance,demo_data
WH-0595,Warehouse_0595,Loc_WH-0595_CanTho,CanTho,Vietnam,Manager_0035,0600000595,warehouse0595@example.com,505,317,distribution,active,demo_data
WH-0596,Warehouse_0596,Loc_WH-0596_Hue,Hue,Vietnam,Manager_0036,0600000596,warehouse0596@example.com,15145,9361,retail,inactive,demo_data
WH-0597,Warehouse_0597,Loc_WH-0597_NhaTrang,NhaTrang,Vietnam,Manager_0037,0600000597,warehouse0597@example.com,19296,1571,main,maintenance,demo_data
WH-0598,Warehouse_0598,Loc_WH-0598_VungTau,VungTau,Vietnam,Manager_0038,0600000598,warehouse0598@example.com,19210,14875,regional,active,demo_data
WH-0599,Warehouse_0599,Loc_WH-0599_BinhDuong,BinhDuong,Vietnam,Manager_0039,0600000599,warehouse0599@example.com,4652,2338,distribution,inactive,demo_data
WH-0600,Warehouse_0600,Loc_WH-0600_BacNinh,BacNinh,Vietnam,Manager_0040,0600000600,warehouse0600@example.com,9290,4767,retail,maintenance,demo_data
WH-0601,Warehouse_0601,Loc_WH-0601_HaNoi,HaNoi,Vietnam,Manager_0001,0600000601,warehouse0601@example.com,10129,2807,main,active,demo_data
WH-0602,Warehouse_0602,Loc_WH-0602_HoChiMinh,HoChiMinh,Vietnam,Manager_0002,0600000602,warehouse0602@example.com,13254,4515,regional,inactive,demo_data
WH-0603,Warehouse_0603,Loc_WH-0603_DaNang,DaNang,Vietnam,Manager_0003,0600000603,warehouse0603@example.com,14825,4259,distribution,maintenance,demo_data
WH-0604,Warehouse_0604,Loc_WH-0604_HaiPhong,HaiPhong,Vietnam,Manager_0004,0600000604,warehouse0604@example.com,6088,2246,retail,active,demo_data
WH-0605,Warehouse_0605,Loc_WH-0605_CanTho,CanTho,Vietnam,Manager_0005,0600000605,warehouse0605@example.com,17732,11833,main,inactive,demo_data
WH-0606,Warehouse_0606,Loc_WH-0606_Hue,Hue,Vietnam,Manager_0006,0600000606,warehouse0606@example.com,1940,1392,regional,maintenance,demo_data
WH-0607,Warehouse_0607,Loc_WH-0607_NhaTrang,NhaTrang,Vietnam,Manager_0007,0600000607,warehouse0607@example.com,2782,1937,distribution,active,demo_data
WH-0608,Warehouse_0608,Loc_WH-0608_VungTau,VungTau,Vietnam,Manager_0008,0600000608,warehouse0608@example.com,13738,12298,retail,inactive,demo_data
WH-0609,Warehouse_0609,Loc_WH-0609_BinhDuong,BinhDuong,Vietnam,Manager_0009,0600000609,warehouse0609@example.com,13091,9591,main,maintenance,demo_data
WH-0610,Warehouse_0610,Loc_WH-0610_BacNinh,BacNinh,Vietnam,Manager_0010,0600000610,warehouse0610@example.com,1095,702,regional,active,demo_data
WH-0611,Warehouse_0611,Loc_WH-0611_HaNoi,HaNoi,Vietnam,Manager_0011,0600000611,warehouse0611@example.com,1123,812,distribution,inactive,demo_data
WH-0612,Warehouse_0612,Loc_WH-0612_HoChiMinh,HoChiMinh,Vietnam,Manager_0012,0600000612,warehouse0612@example.com,13136,3387,retail,maintenance,demo_data
WH-0613,Warehouse_0613,Loc_WH-0613_DaNang,DaNang,Vietnam,Manager_0013,0600000613,warehouse0613@example.com,19813,15406,main,active,demo_data
WH-0614,Warehouse_0614,Loc_WH-0614_HaiPhong,HaiPhong,Vietnam,Manager_0014,0600000614,warehouse0614@example.com,14779,7481,regional,inactive,demo_data
WH-0615,Warehouse_0615,Loc_WH-0615_CanTho,CanTho,Vietnam,Manager_0015,0600000615,warehouse0615@example.com,587,90,distribution,maintenance,demo_data
WH-0616,Warehouse_0616,Loc_WH-0616_Hue,Hue,Vietnam,Manager_0016,0600000616,warehouse0616@example.com,2690,1321,retail,active,demo_data
WH-0617,Warehouse_0617,Loc_WH-0617_NhaTrang,NhaTrang,Vietnam,Manager_0017,0600000617,warehouse0617@example.com,2173,924,main,inactive,demo_data
WH-0618,Warehouse_0618,Loc_WH-0618_VungTau,VungTau,Vietnam,Manager_0018,0600000618,warehouse0618@example.com,4044,2668,regional,maintenance,demo_data
WH-0619,Warehouse_0619,Loc_WH-0619_BinhDuong,BinhDuong,Vietnam,Manager_0019,0600000619,warehouse0619@example.com,15866,14675,distribution,active,demo_data
WH-0620,Warehouse_0620,Loc_WH-0620_BacNinh,BacNinh,Vietnam,Manager_0020,0600000620,warehouse0620@example.com,3482,2018,retail,inactive,demo_data
WH-0621,Warehouse_0621,Loc_WH-0621_HaNoi,HaNoi,Vietnam,Manager_0021,0600000621,warehouse0621@example.com,5401,3556,main,maintenance,demo_data
WH-0622,Warehouse_0622,Loc_WH-0622_HoChiMinh,HoChiMinh,Vietnam,Manager_0022,0600000622,warehouse0622@example.com,1979,604,regional,active,demo_data
WH-0623,Warehouse_0623,Loc_WH-0623_DaNang,DaNang,Vietnam,Manager_0023,0600000623,warehouse0623@example.com,817,317,distribution,inactive,demo_data
WH-0624,Warehouse_0624,Loc_WH-0624_HaiPhong,HaiPhong,Vietnam,Manager_0024,0600000624,warehouse0624@example.com,10518,6783,retail,maintenance,demo_data
WH-0625,Warehouse_0625,Loc_WH-0625_CanTho,CanTho,Vietnam,Manager_0025,0600000625,warehouse0625@example.com,18684,8131,main,active,demo_data
WH-0626,Warehouse_0626,Loc_WH-0626_Hue,Hue,Vietnam,Manager_0026,0600000626,warehouse0626@example.com,6253,1693,regional,inactive,demo_data
WH-0627,Warehouse_0627,Loc_WH-0627_NhaTrang,NhaTrang,Vietnam,Manager_0027,0600000627,warehouse0627@example.com,5030,2247,distribution,maintenance,demo_data
WH-0628,Warehouse_0628,Loc_WH-0628_VungTau,VungTau,Vietnam,Manager_0028,0600000628,warehouse0628@example.com,4422,2186,retail,active,demo_data
WH-0629,Warehouse_0629,Loc_WH-0629_BinhDuong,BinhDuong,Vietnam,Manager_0029,0600000629,warehouse0629@example.com,13071,262,main,inactive,demo_data
WH-0630,Warehouse_0630,Loc_WH-0630_BacNinh,BacNinh,Vietnam,Manager_0030,0600000630,warehouse0630@example.com,2418,130,regional,maintenance,demo_data
WH-0631,Warehouse_0631,Loc_WH-0631_HaNoi,HaNoi,Vietnam,Manager_0031,0600000631,warehouse0631@example.com,4945,3435,distribution,active,demo_data
WH-0632,Warehouse_0632,Loc_WH-0632_HoChiMinh,HoChiMinh,Vietnam,Manager_0032,0600000632,warehouse0632@example.com,4799,3626,retail,inactive,demo_data
WH-0633,Warehouse_0633,Loc_WH-0633_DaNang,DaNang,Vietnam,Manager_0033,0600000633,warehouse0633@example.com,16623,13682,main,maintenance,demo_data
WH-0634,Warehouse_0634,Loc_WH-0634_HaiPhong,HaiPhong,Vietnam,Manager_0034,0600000634,warehouse0634@example.com,1378,425,regional,active,demo_data
WH-0635,Warehouse_0635,Loc_WH-0635_CanTho,CanTho,Vietnam,Manager_0035,0600000635,warehouse0635@example.com,14856,11270,distribution,inactive,demo_data
WH-0636,Warehouse_0636,Loc_WH-0636_Hue,Hue,Vietnam,Manager_0036,0600000636,warehouse0636@example.com,5991,2945,retail,maintenance,demo_data
WH-0637,Warehouse_0637,Loc_WH-0637_NhaTrang,NhaTrang,Vietnam,Manager_0037,0600000637,warehouse0637@example.com,8924,431,main,active,demo_data
WH-0638,Warehouse_0638,Loc_WH-0638_VungTau,VungTau,Vietnam,Manager_0038,0600000638,warehouse0638@example.com,16611,4187,regional,inactive,demo_data
WH-0639,Warehouse_0639,Loc_WH-0639_BinhDuong,BinhDuong,Vietnam,Manager_0039,0600000639,warehouse0639@example.com,14520,2157,distribution,maintenance,demo_data
WH-0640,Warehouse_0640,Loc_WH-0640_BacNinh,BacNinh,Vietnam,Manager_0040,0600000640,warehouse0640@example.com,7045,5722,retail,active,demo_data
WH-0641,Warehouse_0641,Loc_WH-0641_HaNoi,HaNoi,Vietnam,Manager_0001,0600000641,warehouse0641@example.com,14496,2819,main,inactive,demo_data
WH-0642,Warehouse_0642,Loc_WH-0642_HoChiMinh,HoChiMinh,Vietnam,Manager_0002,0600000642,warehouse0642@example.com,3867,217,regional,maintenance,demo_data
WH-0643,Warehouse_0643,Loc_WH-0643_DaNang,DaNang,Vietnam,Manager_0003,0600000643,warehouse0643@example.com,15201,8951,distribution,active,demo_data
WH-0644,Warehouse_0644,Loc_WH-0644_HaiPhong,HaiPhong,Vietnam,Manager_0004,0600000644,warehouse0644@example.com,12581,1398,retail,inactive,demo_data
WH-0645,Warehouse_0645,Loc_WH-0645_CanTho,CanTho,Vietnam,Manager_0005,0600000645,warehouse0645@example.com,6077,4499,main,maintenance,demo_data
WH-0646,Warehouse_0646,Loc_WH-0646_Hue,Hue,Vietnam,Manager_0006,0600000646,warehouse0646@example.com,6643,2836,regional,active,demo_data
WH-0647,Warehouse_0647,Loc_WH-0647_NhaTrang,NhaTrang,Vietnam,Manager_0007,0600000647,warehouse0647@example.com,15165,7047,distribution,inactive,demo_data
WH-0648,Warehouse_0648,Loc_WH-0648_VungTau,VungTau,Vietnam,Manager_0008,0600000648,warehouse0648@example.com,5475,110,retail,maintenance,demo_data
WH-0649,Warehouse_0649,Loc_WH-0649_BinhDuong,BinhDuong,Vietnam,Manager_0009,0600000649,warehouse0649@example.com,3133,3083,main,active,demo_data
WH-0650,Warehouse_0650,Loc_WH-0650_BacNinh,BacNinh,Vietnam,Manager_0010,0600000650,warehouse0650@example.com,19421,10020,regional,inactive,demo_data
WH-0651,Warehouse_0651,Loc_WH-0651_HaNoi,HaNoi,Vietnam,Manager_0011,0600000651,warehouse0651@example.com,3709,1502,distribution,maintenance,demo_data
WH-0652,Warehouse_0652,Loc_WH-0652_HoChiMinh,HoChiMinh,Vietnam,Manager_0012,0600000652,warehouse0652@example.com,18475,3305,retail,active,demo_data
WH-0653,Warehouse_0653,Loc_WH-0653_DaNang,DaNang,Vietnam,Manager_0013,0600000653,warehouse0653@example.com,8448,2879,main,inactive,demo_data
WH-0654,Warehouse_0654,Loc_WH-0654_HaiPhong,HaiPhong,Vietnam,Manager_0014,0600000654,warehouse0654@example.com,3811,3289,regional,maintenance,demo_data
WH-0655,Warehouse_0655,Loc_WH-0655_CanTho,CanTho,Vietnam,Manager_0015,0600000655,warehouse0655@example.com,15057,3793,distribution,active,demo_data
WH-0656,Warehouse_0656,Loc_WH-0656_Hue,Hue,Vietnam,Manager_0016,0600000656,warehouse0656@example.com,8451,8169,retail,inactive,demo_data
WH-0657,Warehouse_0657,Loc_WH-0657_NhaTrang,NhaTrang,Vietnam,Manager_0017,0600000657,warehouse0657@example.com,17048,16397,main,maintenance,demo_data
WH-0658,Warehouse_0658,Loc_WH-0658_VungTau,VungTau,Vietnam,Manager_0018,0600000658,warehouse0658@example.com,19411,14530,regional,active,demo_data
WH-0659,Warehouse_0659,Loc_WH-0659_BinhDuong,BinhDuong,Vietnam,Manager_0019,0600000659,warehouse0659@example.com,14122,10544,distribution,inactive,demo_data
WH-0660,Warehouse_0660,Loc_WH-0660_BacNinh,BacNinh,Vietnam,Manager_0020,0600000660,warehouse0660@example.com,2556,2148,retail,maintenance,demo_data
WH-0661,Warehouse_0661,Loc_WH-0661_HaNoi,HaNoi,Vietnam,Manager_0021,0600000661,warehouse0661@example.com,10989,4326,main,active,demo_data
WH-0662,Warehouse_0662,Loc_WH-0662_HoChiMinh,HoChiMinh,Vietnam,Manager_0022,0600000662,warehouse0662@example.com,4903,4405,regional,inactive,demo_data
WH-0663,Warehouse_0663,Loc_WH-0663_DaNang,DaNang,Vietnam,Manager_0023,0600000663,warehouse0663@example.com,853,349,distribution,maintenance,demo_data
WH-0664,Warehouse_0664,Loc_WH-0664_HaiPhong,HaiPhong,Vietnam,Manager_0024,0600000664,warehouse0664@example.com,19673,1935,retail,active,demo_data
WH-0665,Warehouse_0665,Loc_WH-0665_CanTho,CanTho,Vietnam,Manager_0025,0600000665,warehouse0665@example.com,14355,9027,main,inactive,demo_data
WH-0666,Warehouse_0666,Loc_WH-0666_Hue,Hue,Vietnam,Manager_0026,0600000666,warehouse0666@example.com,1347,821,regional,maintenance,demo_data
WH-0667,Warehouse_0667,Loc_WH-0667_NhaTrang,NhaTrang,Vietnam,Manager_0027,0600000667,warehouse0667@example.com,2979,856,distribution,active,demo_data
WH-0668,Warehouse_0668,Loc_WH-0668_VungTau,VungTau,Vietnam,Manager_0028,0600000668,warehouse0668@example.com,5408,2402,retail,inactive,demo_data
WH-0669,Warehouse_0669,Loc_WH-0669_BinhDuong,BinhDuong,Vietnam,Manager_0029,0600000669,warehouse0669@example.com,5649,2539,main,maintenance,demo_data
WH-0670,Warehouse_0670,Loc_WH-0670_BacNinh,BacNinh,Vietnam,Manager_0030,0600000670,warehouse0670@example.com,15557,2563,regional,active,demo_data
WH-0671,Warehouse_0671,Loc_WH-0671_HaNoi,HaNoi,Vietnam,Manager_0031,0600000671,warehouse0671@example.com,12071,5464,distribution,inactive,demo_data
WH-0672,Warehouse_0672,Loc_WH-0672_HoChiMinh,HoChiMinh,Vietnam,Manager_0032,0600000672,warehouse0672@example.com,10476,5573,retail,maintenance,demo_data
WH-0673,Warehouse_0673,Loc_WH-0673_DaNang,DaNang,Vietnam,Manager_0033,0600000673,warehouse0673@example.com,10789,8049,main,active,demo_data
WH-0674,Warehouse_0674,Loc_WH-0674_HaiPhong,HaiPhong,Vietnam,Manager_0034,0600000674,warehouse0674@example.com,4192,43,regional,inactive,demo_data
WH-0675,Warehouse_0675,Loc_WH-0675_CanTho,CanTho,Vietnam,Manager_0035,0600000675,warehouse0675@example.com,7340,6648,distribution,maintenance,demo_data
WH-0676,Warehouse_0676,Loc_WH-0676_Hue,Hue,Vietnam,Manager_0036,0600000676,warehouse0676@example.com,19881,18001,retail,active,demo_data
WH-0677,Warehouse_0677,Loc_WH-0677_NhaTrang,NhaTrang,Vietnam,Manager_0037,0600000677,warehouse0677@example.com,19469,12917,main,inactive,demo_data
WH-0678,Warehouse_0678,Loc_WH-0678_VungTau,VungTau,Vietnam,Manager_0038,0600000678,warehouse0678@example.com,9380,9085,regional,maintenance,demo_data
WH-0679,Warehouse_0679,Loc_WH-0679_BinhDuong,BinhDuong,Vietnam,Manager_0039,0600000679,warehouse0679@example.com,7766,4691,distribution,active,demo_data
WH-0680,Warehouse_0680,Loc_WH-0680_BacNinh,BacNinh,Vietnam,Manager_0040,0600000680,warehouse0680@example.com,3677,1542,retail,inactive,demo_data
WH-0681,Warehouse_0681,Loc_WH-0681_HaNoi,HaNoi,Vietnam,Manager_0001,0600000681,warehouse0681@example.com,7155,3447,main,maintenance,demo_data
WH-0682,Warehouse_0682,Loc_WH-0682_HoChiMinh,HoChiMinh,Vietnam,Manager_0002,0600000682,warehouse0682@example.com,14839,1525,regional,active,demo_data
WH-0683,Warehouse_0683,Loc_WH-0683_DaNang,DaNang,Vietnam,Manager_0003,0600000683,warehouse0683@example.com,8194,7936,distribution,inactive,demo_data
WH-0684,Warehouse_0684,Loc_WH-0684_HaiPhong,HaiPhong,Vietnam,Manager_0004,0600000684,warehouse0684@example.com,9653,916,retail,maintenance,demo_data
WH-0685,Warehouse_0685,Loc_WH-0685_CanTho,CanTho,Vietnam,Manager_0005,0600000685,warehouse0685@example.com,739,237,main,active,demo_data
WH-0686,Warehouse_0686,Loc_WH-0686_Hue,Hue,Vietnam,Manager_0006,0600000686,warehouse0686@example.com,16034,6142,regional,inactive,demo_data
WH-0687,Warehouse_0687,Loc_WH-0687_NhaTrang,NhaTrang,Vietnam,Manager_0007,0600000687,warehouse0687@example.com,17484,15518,distribution,maintenance,demo_data
WH-0688,Warehouse_0688,Loc_WH-0688_VungTau,VungTau,Vietnam,Manager_0008,0600000688,warehouse0688@example.com,8103,6031,retail,active,demo_data
WH-0689,Warehouse_0689,Loc_WH-0689_BinhDuong,BinhDuong,Vietnam,Manager_0009,0600000689,warehouse0689@example.com,7581,4287,main,inactive,demo_data
WH-0690,Warehouse_0690,Loc_WH-0690_BacNinh,BacNinh,Vietnam,Manager_0010,0600000690,warehouse0690@example.com,5968,3621,regional,maintenance,demo_data
WH-0691,Warehouse_0691,Loc_WH-0691_HaNoi,HaNoi,Vietnam,Manager_0011,0600000691,warehouse0691@example.com,6640,5060,distribution,active,demo_data
WH-0692,Warehouse_0692,Loc_WH-0692_HoChiMinh,HoChiMinh,Vietnam,Manager_0012,0600000692,warehouse0692@example.com,18431,13234,retail,inactive,demo_data
WH-0693,Warehouse_0693,Loc_WH-0693_DaNang,DaNang,Vietnam,Manager_0013,0600000693,warehouse0693@example.com,9180,4880,main,maintenance,demo_data
WH-0694,Warehouse_0694,Loc_WH-0694_HaiPhong,HaiPhong,Vietnam,Manager_0014,0600000694,warehouse0694@example.com,6253,2721,regional,active,demo_data
WH-0695,Warehouse_0695,Loc_WH-0695_CanTho,CanTho,Vietnam,Manager_0015,0600000695,warehouse0695@example.com,14440,5473,distribution,inactive,demo_data
WH-0696,Warehouse_0696,Loc_WH-0696_Hue,Hue,Vietnam,Manager_0016,0600000696,warehouse0696@example.com,836,472,retail,maintenance,demo_data
WH-0697,Warehouse_0697,Loc_WH-0697_NhaTrang,NhaTrang,Vietnam,Manager_0017,0600000697,warehouse0697@example.com,6054,4012,main,active,demo_data
WH-0698,Warehouse_0698,Loc_WH-0698_VungTau,VungTau,Vietnam,Manager_0018,0600000698,warehouse0698@example.com,6401,13,regional,inactive,demo_data
WH-0699,Warehouse_0699,Loc_WH-0699_BinhDuong,BinhDuong,Vietnam,Manager_0019,0600000699,warehouse0699@example.com,11840,1408,distribution,maintenance,demo_data
WH-0700,Warehouse_0700,Loc_WH-0700_BacNinh,BacNinh,Vietnam,Manager_0020,0600000700,warehouse0700@example.com,14393,14090,retail,active,demo_data
WH-0701,Warehouse_0701,Loc_WH-0701_HaNoi,HaNoi,Vietnam,Manager_0021,0600000701,warehouse0701@example.com,3122,393,main,inactive,demo_data
WH-0702,Warehouse_0702,Loc_WH-0702_HoChiMinh,HoChiMinh,Vietnam,Manager_0022,0600000702,warehouse0702@example.com,3930,913,regional,maintenance,demo_data
WH-0703,Warehouse_0703,Loc_WH-0703_DaNang,DaNang,Vietnam,Manager_0023,0600000703,warehouse0703@example.com,18793,14081,distribution,active,demo_data
WH-0704,Warehouse_0704,Loc_WH-0704_HaiPhong,HaiPhong,Vietnam,Manager_0024,0600000704,warehouse0704@example.com,12469,7324,retail,inactive,demo_data
WH-0705,Warehouse_0705,Loc_WH-0705_CanTho,CanTho,Vietnam,Manager_0025,0600000705,warehouse0705@example.com,18755,13845,main,maintenance,demo_data
WH-0706,Warehouse_0706,Loc_WH-0706_Hue,Hue,Vietnam,Manager_0026,0600000706,warehouse0706@example.com,8044,3436,regional,active,demo_data
WH-0707,Warehouse_0707,Loc_WH-0707_NhaTrang,NhaTrang,Vietnam,Manager_0027,0600000707,warehouse0707@example.com,17413,8093,distribution,inactive,demo_data
WH-0708,Warehouse_0708,Loc_WH-0708_VungTau,VungTau,Vietnam,Manager_0028,0600000708,warehouse0708@example.com,4804,2769,retail,maintenance,demo_data
WH-0709,Warehouse_0709,Loc_WH-0709_BinhDuong,BinhDuong,Vietnam,Manager_0029,0600000709,warehouse0709@example.com,5581,1457,main,active,demo_data
WH-0710,Warehouse_0710,Loc_WH-0710_BacNinh,BacNinh,Vietnam,Manager_0030,0600000710,warehouse0710@example.com,5314,1861,regional,inactive,demo_data
WH-0711,Warehouse_0711,Loc_WH-0711_HaNoi,HaNoi,Vietnam,Manager_0031,0600000711,warehouse0711@example.com,7622,5974,distribution,maintenance,demo_data
WH-0712,Warehouse_0712,Loc_WH-0712_HoChiMinh,HoChiMinh,Vietnam,Manager_0032,0600000712,warehouse0712@example.com,14117,1695,retail,active,demo_data
WH-0713,Warehouse_0713,Loc_WH-0713_DaNang,DaNang,Vietnam,Manager_0033,0600000713,warehouse0713@example.com,12718,7369,main,inactive,demo_data
WH-0714,Warehouse_0714,Loc_WH-0714_HaiPhong,HaiPhong,Vietnam,Manager_0034,0600000714,warehouse0714@example.com,10207,7349,regional,maintenance,demo_data
WH-0715,Warehouse_0715,Loc_WH-0715_CanTho,CanTho,Vietnam,Manager_0035,0600000715,warehouse0715@example.com,6044,2801,distribution,active,demo_data
WH-0716,Warehouse_0716,Loc_WH-0716_Hue,Hue,Vietnam,Manager_0036,0600000716,warehouse0716@example.com,17848,12226,retail,inactive,demo_data
WH-0717,Warehouse_0717,Loc_WH-0717_NhaTrang,NhaTrang,Vietnam,Manager_0037,0600000717,warehouse0717@example.com,13305,4406,main,maintenance,demo_data
WH-0718,Warehouse_0718,Loc_WH-0718_VungTau,VungTau,Vietnam,Manager_0038,0600000718,warehouse0718@example.com,3169,2430,regional,active,demo_data
WH-0719,Warehouse_0719,Loc_WH-0719_BinhDuong,BinhDuong,Vietnam,Manager_0039,0600000719,warehouse0719@example.com,14643,13155,distribution,inactive,demo_data
WH-0720,Warehouse_0720,Loc_WH-0720_BacNinh,BacNinh,Vietnam,Manager_0040,0600000720,warehouse0720@example.com,12903,2108,retail,maintenance,demo_data
WH-0721,Warehouse_0721,Loc_WH-0721_HaNoi,HaNoi,Vietnam,Manager_0001,0600000721,warehouse0721@example.com,8102,7807,main,active,demo_data
WH-0722,Warehouse_0722,Loc_WH-0722_HoChiMinh,HoChiMinh,Vietnam,Manager_0002,0600000722,warehouse0722@example.com,4303,2645,regional,inactive,demo_data
WH-0723,Warehouse_0723,Loc_WH-0723_DaNang,DaNang,Vietnam,Manager_0003,0600000723,warehouse0723@example.com,14061,3225,distribution,maintenance,demo_data
WH-0724,Warehouse_0724,Loc_WH-0724_HaiPhong,HaiPhong,Vietnam,Manager_0004,0600000724,warehouse0724@example.com,1858,1654,retail,active,demo_data
WH-0725,Warehouse_0725,Loc_WH-0725_CanTho,CanTho,Vietnam,Manager_0005,0600000725,warehouse0725@example.com,7030,1212,main,inactive,demo_data
WH-0726,Warehouse_0726,Loc_WH-0726_Hue,Hue,Vietnam,Manager_0006,0600000726,warehouse0726@example.com,10351,3304,regional,maintenance,demo_data
WH-0727,Warehouse_0727,Loc_WH-0727_NhaTrang,NhaTrang,Vietnam,Manager_0007,0600000727,warehouse0727@example.com,7737,5823,distribution,active,demo_data
WH-0728,Warehouse_0728,Loc_WH-0728_VungTau,VungTau,Vietnam,Manager_0008,0600000728,warehouse0728@example.com,8597,2174,retail,inactive,demo_data
WH-0729,Warehouse_0729,Loc_WH-0729_BinhDuong,BinhDuong,Vietnam,Manager_0009,0600000729,warehouse0729@example.com,6219,4354,main,maintenance,demo_data
WH-0730,Warehouse_0730,Loc_WH-0730_BacNinh,BacNinh,Vietnam,Manager_0010,0600000730,warehouse0730@example.com,15228,4086,regional,active,demo_data
WH-0731,Warehouse_0731,Loc_WH-0731_HaNoi,HaNoi,Vietnam,Manager_0011,0600000731,warehouse0731@example.com,19657,19308,distribution,inactive,demo_data
WH-0732,Warehouse_0732,Loc_WH-0732_HoChiMinh,HoChiMinh,Vietnam,Manager_0012,0600000732,warehouse0732@example.com,15833,11214,retail,maintenance,demo_data
WH-0733,Warehouse_0733,Loc_WH-0733_DaNang,DaNang,Vietnam,Manager_0013,0600000733,warehouse0733@example.com,9642,4916,main,active,demo_data
WH-0734,Warehouse_0734,Loc_WH-0734_HaiPhong,HaiPhong,Vietnam,Manager_0014,0600000734,warehouse0734@example.com,11661,9403,regional,inactive,demo_data
WH-0735,Warehouse_0735,Loc_WH-0735_CanTho,CanTho,Vietnam,Manager_0015,0600000735,warehouse0735@example.com,6968,6127,distribution,maintenance,demo_data
WH-0736,Warehouse_0736,Loc_WH-0736_Hue,Hue,Vietnam,Manager_0016,0600000736,warehouse0736@example.com,16122,1894,retail,active,demo_data
WH-0737,Warehouse_0737,Loc_WH-0737_NhaTrang,NhaTrang,Vietnam,Manager_0017,0600000737,warehouse0737@example.com,5283,444,main,inactive,demo_data
WH-0738,Warehouse_0738,Loc_WH-0738_VungTau,VungTau,Vietnam,Manager_0018,0600000738,warehouse0738@example.com,16116,4419,regional,maintenance,demo_data
WH-0739,Warehouse_0739,Loc_WH-0739_BinhDuong,BinhDuong,Vietnam,Manager_0019,0600000739,warehouse0739@example.com,11842,2200,distribution,active,demo_data
WH-0740,Warehouse_0740,Loc_WH-0740_BacNinh,BacNinh,Vietnam,Manager_0020,0600000740,warehouse0740@example.com,12525,6397,retail,inactive,demo_data
WH-0741,Warehouse_0741,Loc_WH-0741_HaNoi,HaNoi,Vietnam,Manager_0021,0600000741,warehouse0741@example.com,2864,1841,main,maintenance,demo_data
WH-0742,Warehouse_0742,Loc_WH-0742_HoChiMinh,HoChiMinh,Vietnam,Manager_0022,0600000742,warehouse0742@example.com,3421,2456,regional,active,demo_data
WH-0743,Warehouse_0743,Loc_WH-0743_DaNang,DaNang,Vietnam,Manager_0023,0600000743,warehouse0743@example.com,5471,2934,distribution,inactive,demo_data
WH-0744,Warehouse_0744,Loc_WH-0744_HaiPhong,HaiPhong,Vietnam,Manager_0024,0600000744,warehouse0744@example.com,1666,408,retail,maintenance,demo_data
WH-0745,Warehouse_0745,Loc_WH-0745_CanTho,CanTho,Vietnam,Manager_0025,0600000745,warehouse0745@example.com,13187,4591,main,active,demo_data
WH-0746,Warehouse_0746,Loc_WH-0746_Hue,Hue,Vietnam,Manager_0026,0600000746,warehouse0746@example.com,19472,11974,regional,inactive,demo_data
WH-0747,Warehouse_0747,Loc_WH-0747_NhaTrang,NhaTrang,Vietnam,Manager_0027,0600000747,warehouse0747@example.com,10608,7746,distribution,maintenance,demo_data
WH-0748,Warehouse_0748,Loc_WH-0748_VungTau,VungTau,Vietnam,Manager_0028,0600000748,warehouse0748@example.com,10710,6078,retail,active,demo_data
WH-0749,Warehouse_0749,Loc_WH-0749_BinhDuong,BinhDuong,Vietnam,Manager_0029,0600000749,warehouse0749@example.com,5597,4566,main,inactive,demo_data
WH-0750,Warehouse_0750,Loc_WH-0750_BacNinh,BacNinh,Vietnam,Manager_0030,0600000750,warehouse0750@example.com,6241,4117,regional,maintenance,demo_data
WH-0751,Warehouse_0751,Loc_WH-0751_HaNoi,HaNoi,Vietnam,Manager_0031,0600000751,warehouse0751@example.com,4287,3043,distribution,active,demo_data
WH-0752,Warehouse_0752,Loc_WH-0752_HoChiMinh,HoChiMinh,Vietnam,Manager_0032,0600000752,warehouse0752@example.com,7169,2393,retail,inactive,demo_data
WH-0753,Warehouse_0753,Loc_WH-0753_DaNang,DaNang,Vietnam,Manager_0033,0600000753,warehouse0753@example.com,10927,1957,main,maintenance,demo_data
WH-0754,Warehouse_0754,Loc_WH-0754_HaiPhong,HaiPhong,Vietnam,Manager_0034,0600000754,warehouse0754@example.com,11381,8594,regional,active,demo_data
WH-0755,Warehouse_0755,Loc_WH-0755_CanTho,CanTho,Vietnam,Manager_0035,0600000755,warehouse0755@example.com,4258,3615,distribution,inactive,demo_data
WH-0756,Warehouse_0756,Loc_WH-0756_Hue,Hue,Vietnam,Manager_0036,0600000756,warehouse0756@example.com,18454,921,retail,maintenance,demo_data
WH-0757,Warehouse_0757,Loc_WH-0757_NhaTrang,NhaTrang,Vietnam,Manager_0037,0600000757,warehouse0757@example.com,18195,438,main,active,demo_data
WH-0758,Warehouse_0758,Loc_WH-0758_VungTau,VungTau,Vietnam,Manager_0038,0600000758,warehouse0758@example.com,6890,6151,regional,inactive,demo_data
WH-0759,Warehouse_0759,Loc_WH-0759_BinhDuong,BinhDuong,Vietnam,Manager_0039,0600000759,warehouse0759@example.com,13353,11815,distribution,maintenance,demo_data
WH-0760,Warehouse_0760,Loc_WH-0760_BacNinh,BacNinh,Vietnam,Manager_0040,0600000760,warehouse0760@example.com,5694,4327,retail,active,demo_data
WH-0761,Warehouse_0761,Loc_WH-0761_HaNoi,HaNoi,Vietnam,Manager_0001,0600000761,warehouse0761@example.com,2718,661,main,inactive,demo_data
WH-0762,Warehouse_0762,Loc_WH-0762_HoChiMinh,HoChiMinh,Vietnam,Manager_0002,0600000762,warehouse0762@example.com,5553,704,regional,maintenance,demo_data
WH-0763,Warehouse_0763,Loc_WH-0763_DaNang,DaNang,Vietnam,Manager_0003,0600000763,warehouse0763@example.com,16068,2747,distribution,active,demo_data
WH-0764,Warehouse_0764,Loc_WH-0764_HaiPhong,HaiPhong,Vietnam,Manager_0004,0600000764,warehouse0764@example.com,8555,7805,retail,inactive,demo_data
WH-0765,Warehouse_0765,Loc_WH-0765_CanTho,CanTho,Vietnam,Manager_0005,0600000765,warehouse0765@example.com,11637,1479,main,maintenance,demo_data
WH-0766,Warehouse_0766,Loc_WH-0766_Hue,Hue,Vietnam,Manager_0006,0600000766,warehouse0766@example.com,19348,2471,regional,active,demo_data
WH-0767,Warehouse_0767,Loc_WH-0767_NhaTrang,NhaTrang,Vietnam,Manager_0007,0600000767,warehouse0767@example.com,12962,12808,distribution,inactive,demo_data
WH-0768,Warehouse_0768,Loc_WH-0768_VungTau,VungTau,Vietnam,Manager_0008,0600000768,warehouse0768@example.com,18521,5794,retail,maintenance,demo_data
WH-0769,Warehouse_0769,Loc_WH-0769_BinhDuong,BinhDuong,Vietnam,Manager_0009,0600000769,warehouse0769@example.com,1511,295,main,active,demo_data
WH-0770,Warehouse_0770,Loc_WH-0770_BacNinh,BacNinh,Vietnam,Manager_0010,0600000770,warehouse0770@example.com,6388,1652,regional,inactive,demo_data
WH-0771,Warehouse_0771,Loc_WH-0771_HaNoi,HaNoi,Vietnam,Manager_0011,0600000771,warehouse0771@example.com,2468,514,distribution,maintenance,demo_data
WH-0772,Warehouse_0772,Loc_WH-0772_HoChiMinh,HoChiMinh,Vietnam,Manager_0012,0600000772,warehouse0772@example.com,3207,1897,retail,active,demo_data
WH-0773,Warehouse_0773,Loc_WH-0773_DaNang,DaNang,Vietnam,Manager_0013,0600000773,warehouse0773@example.com,9886,6692,main,inactive,demo_data
WH-0774,Warehouse_0774,Loc_WH-0774_HaiPhong,HaiPhong,Vietnam,Manager_0014,0600000774,warehouse0774@example.com,6087,1291,regional,maintenance,demo_data
WH-0775,Warehouse_0775,Loc_WH-0775_CanTho,CanTho,Vietnam,Manager_0015,0600000775,warehouse0775@example.com,1200,947,distribution,active,demo_data
WH-0776,Warehouse_0776,Loc_WH-0776_Hue,Hue,Vietnam,Manager_0016,0600000776,warehouse0776@example.com,12145,7939,retail,inactive,demo_data
WH-0777,Warehouse_0777,Loc_WH-0777_NhaTrang,NhaTrang,Vietnam,Manager_0017,0600000777,warehouse0777@example.com,11307,851,main,maintenance,demo_data
WH-0778,Warehouse_0778,Loc_WH-0778_VungTau,VungTau,Vietnam,Manager_0018,0600000778,warehouse0778@example.com,17491,8590,regional,active,demo_data
WH-0779,Warehouse_0779,Loc_WH-0779_BinhDuong,BinhDuong,Vietnam,Manager_0019,0600000779,warehouse0779@example.com,10815,4542,distribution,inactive,demo_data
WH-0780,Warehouse_0780,Loc_WH-0780_BacNinh,BacNinh,Vietnam,Manager_0020,0600000780,warehouse0780@example.com,18354,2317,retail,maintenance,demo_data
WH-0781,Warehouse_0781,Loc_WH-0781_HaNoi,HaNoi,Vietnam,Manager_0021,0600000781,warehouse0781@example.com,15239,14562,main,active,demo_data
WH-0782,Warehouse_0782,Loc_WH-0782_HoChiMinh,HoChiMinh,Vietnam,Manager_0022,0600000782,warehouse0782@example.com,18075,85,regional,inactive,demo_data
WH-0783,Warehouse_0783,Loc_WH-0783_DaNang,DaNang,Vietnam,Manager_0023,0600000783,warehouse0783@example.com,933,310,distribution,maintenance,demo_data
WH-0784,Warehouse_0784,Loc_WH-0784_HaiPhong,HaiPhong,Vietnam,Manager_0024,0600000784,warehouse0784@example.com,3504,2057,retail,active,demo_data
WH-0785,Warehouse_0785,Loc_WH-0785_CanTho,CanTho,Vietnam,Manager_0025,0600000785,warehouse0785@example.com,17699,2744,main,inactive,demo_data
WH-0786,Warehouse_0786,Loc_WH-0786_Hue,Hue,Vietnam,Manager_0026,0600000786,warehouse0786@example.com,6248,5869,regional,maintenance,demo_data
WH-0787,Warehouse_0787,Loc_WH-0787_NhaTrang,NhaTrang,Vietnam,Manager_0027,0600000787,warehouse0787@example.com,7628,1926,distribution,active,demo_data
WH-0788,Warehouse_0788,Loc_WH-0788_VungTau,VungTau,Vietnam,Manager_0028,0600000788,warehouse0788@example.com,6636,4655,retail,inactive,demo_data
WH-0789,Warehouse_0789,Loc_WH-0789_BinhDuong,BinhDuong,Vietnam,Manager_0029,0600000789,warehouse0789@example.com,19547,6752,main,maintenance,demo_data
WH-0790,Warehouse_0790,Loc_WH-0790_BacNinh,BacNinh,Vietnam,Manager_0030,0600000790,warehouse0790@example.com,524,296,regional,active,demo_data
WH-0791,Warehouse_0791,Loc_WH-0791_HaNoi,HaNoi,Vietnam,Manager_0031,0600000791,warehouse0791@example.com,19080,10252,distribution,inactive,demo_data
WH-0792,Warehouse_0792,Loc_WH-0792_HoChiMinh,HoChiMinh,Vietnam,Manager_0032,0600000792,warehouse0792@example.com,8377,1827,retail,maintenance,demo_data
WH-0793,Warehouse_0793,Loc_WH-0793_DaNang,DaNang,Vietnam,Manager_0033,0600000793,warehouse0793@example.com,11734,10431,main,active,demo_data
WH-0794,Warehouse_0794,Loc_WH-0794_HaiPhong,HaiPhong,Vietnam,Manager_0034,0600000794,warehouse0794@example.com,10148,5466,regional,inactive,demo_data
WH-0795,Warehouse_0795,Loc_WH-0795_CanTho,CanTho,Vietnam,Manager_0035,0600000795,warehouse0795@example.com,15989,14048,distribution,maintenance,demo_data
WH-0796,Warehouse_0796,Loc_WH-0796_Hue,Hue,Vietnam,Manager_0036,0600000796,warehouse0796@example.com,16624,5320,retail,active,demo_data
WH-0797,Warehouse_0797,Loc_WH-0797_NhaTrang,NhaTrang,Vietnam,Manager_0037,0600000797,warehouse0797@example.com,11708,5351,main,inactive,demo_data
WH-0798,Warehouse_0798,Loc_WH-0798_VungTau,VungTau,Vietnam,Manager_0038,0600000798,warehouse0798@example.com,11010,7077,regional,maintenance,demo_data
WH-0799,Warehouse_0799,Loc_WH-0799_BinhDuong,BinhDuong,Vietnam,Manager_0039,0600000799,warehouse0799@example.com,8714,1826,distribution,active,demo_data
WH-0800,Warehouse_0800,Loc_WH-0800_BacNinh,BacNinh,Vietnam,Manager_0040,0600000800,warehouse0800@example.com,1413,1335,retail,inactive,demo_data
WH-0801,Warehouse_0801,Loc_WH-0801_HaNoi,HaNoi,Vietnam,Manager_0001,0600000801,warehouse0801@example.com,17471,8945,main,maintenance,demo_data
WH-0802,Warehouse_0802,Loc_WH-0802_HoChiMinh,HoChiMinh,Vietnam,Manager_0002,0600000802,warehouse0802@example.com,10695,5664,regional,active,demo_data
WH-0803,Warehouse_0803,Loc_WH-0803_DaNang,DaNang,Vietnam,Manager_0003,0600000803,warehouse0803@example.com,1657,1063,distribution,inactive,demo_data
WH-0804,Warehouse_0804,Loc_WH-0804_HaiPhong,HaiPhong,Vietnam,Manager_0004,0600000804,warehouse0804@example.com,17237,3274,retail,maintenance,demo_data
WH-0805,Warehouse_0805,Loc_WH-0805_CanTho,CanTho,Vietnam,Manager_0005,0600000805,warehouse0805@example.com,18494,5428,main,active,demo_data
WH-0806,Warehouse_0806,Loc_WH-0806_Hue,Hue,Vietnam,Manager_0006,0600000806,warehouse0806@example.com,3197,1455,regional,inactive,demo_data
WH-0807,Warehouse_0807,Loc_WH-0807_NhaTrang,NhaTrang,Vietnam,Manager_0007,0600000807,warehouse0807@example.com,15435,12285,distribution,maintenance,demo_data
WH-0808,Warehouse_0808,Loc_WH-0808_VungTau,VungTau,Vietnam,Manager_0008,0600000808,warehouse0808@example.com,11499,514,retail,active,demo_data
WH-0809,Warehouse_0809,Loc_WH-0809_BinhDuong,BinhDuong,Vietnam,Manager_0009,0600000809,warehouse0809@example.com,13101,3596,main,inactive,demo_data
WH-0810,Warehouse_0810,Loc_WH-0810_BacNinh,BacNinh,Vietnam,Manager_0010,0600000810,warehouse0810@example.com,16821,5417,regional,maintenance,demo_data
WH-0811,Warehouse_0811,Loc_WH-0811_HaNoi,HaNoi,Vietnam,Manager_0011,0600000811,warehouse0811@example.com,11913,2030,distribution,active,demo_data
WH-0812,Warehouse_0812,Loc_WH-0812_HoChiMinh,HoChiMinh,Vietnam,Manager_0012,0600000812,warehouse0812@example.com,2241,1249,retail,inactive,demo_data
WH-0813,Warehouse_0813,Loc_WH-0813_DaNang,DaNang,Vietnam,Manager_0013,0600000813,warehouse0813@example.com,11002,3537,main,maintenance,demo_data
WH-0814,Warehouse_0814,Loc_WH-0814_HaiPhong,HaiPhong,Vietnam,Manager_0014,0600000814,warehouse0814@example.com,13209,12161,regional,active,demo_data
WH-0815,Warehouse_0815,Loc_WH-0815_CanTho,CanTho,Vietnam,Manager_0015,0600000815,warehouse0815@example.com,6834,2673,distribution,inactive,demo_data
WH-0816,Warehouse_0816,Loc_WH-0816_Hue,Hue,Vietnam,Manager_0016,0600000816,warehouse0816@example.com,14620,4968,retail,maintenance,demo_data
WH-0817,Warehouse_0817,Loc_WH-0817_NhaTrang,NhaTrang,Vietnam,Manager_0017,0600000817,warehouse0817@example.com,14817,7560,main,active,demo_data
WH-0818,Warehouse_0818,Loc_WH-0818_VungTau,VungTau,Vietnam,Manager_0018,0600000818,warehouse0818@example.com,2052,717,regional,inactive,demo_data
WH-0819,Warehouse_0819,Loc_WH-0819_BinhDuong,BinhDuong,Vietnam,Manager_0019,0600000819,warehouse0819@example.com,4261,4247,distribution,maintenance,demo_data
WH-0820,Warehouse_0820,Loc_WH-0820_BacNinh,BacNinh,Vietnam,Manager_0020,0600000820,warehouse0820@example.com,8460,83,retail,active,demo_data
WH-0821,Warehouse_0821,Loc_WH-0821_HaNoi,HaNoi,Vietnam,Manager_0021,0600000821,warehouse0821@example.com,18663,14919,main,inactive,demo_data
WH-0822,Warehouse_0822,Loc_WH-0822_HoChiMinh,HoChiMinh,Vietnam,Manager_0022,0600000822,warehouse0822@example.com,17208,631,regional,maintenance,demo_data
WH-0823,Warehouse_0823,Loc_WH-0823_DaNang,DaNang,Vietnam,Manager_0023,0600000823,warehouse0823@example.com,17407,14615,distribution,active,demo_data
WH-0824,Warehouse_0824,Loc_WH-0824_HaiPhong,HaiPhong,Vietnam,Manager_0024,0600000824,warehouse0824@example.com,15773,6284,retail,inactive,demo_data
WH-0825,Warehouse_0825,Loc_WH-0825_CanTho,CanTho,Vietnam,Manager_0025,0600000825,warehouse0825@example.com,9966,7917,main,maintenance,demo_data
WH-0826,Warehouse_0826,Loc_WH-0826_Hue,Hue,Vietnam,Manager_0026,0600000826,warehouse0826@example.com,14875,2004,regional,active,demo_data
WH-0827,Warehouse_0827,Loc_WH-0827_NhaTrang,NhaTrang,Vietnam,Manager_0027,0600000827,warehouse0827@example.com,9843,9812,distribution,inactive,demo_data
WH-0828,Warehouse_0828,Loc_WH-0828_VungTau,VungTau,Vietnam,Manager_0028,0600000828,warehouse0828@example.com,19802,4671,retail,maintenance,demo_data
WH-0829,Warehouse_0829,Loc_WH-0829_BinhDuong,BinhDuong,Vietnam,Manager_0029,0600000829,warehouse0829@example.com,3078,474,main,active,demo_data
WH-0830,Warehouse_0830,Loc_WH-0830_BacNinh,BacNinh,Vietnam,Manager_0030,0600000830,warehouse0830@example.com,5037,1000,regional,inactive,demo_data
WH-0831,Warehouse_0831,Loc_WH-0831_HaNoi,HaNoi,Vietnam,Manager_0031,0600000831,warehouse0831@example.com,18529,6571,distribution,maintenance,demo_data
WH-0832,Warehouse_0832,Loc_WH-0832_HoChiMinh,HoChiMinh,Vietnam,Manager_0032,0600000832,warehouse0832@example.com,18774,7799,retail,active,demo_data
WH-0833,Warehouse_0833,Loc_WH-0833_DaNang,DaNang,Vietnam,Manager_0033,0600000833,warehouse0833@example.com,1648,298,main,inactive,demo_data
WH-0834,Warehouse_0834,Loc_WH-0834_HaiPhong,HaiPhong,Vietnam,Manager_0034,0600000834,warehouse0834@example.com,8713,3299,regional,maintenance,demo_data
WH-0835,Warehouse_0835,Loc_WH-0835_CanTho,CanTho,Vietnam,Manager_0035,0600000835,warehouse0835@example.com,1301,191,distribution,active,demo_data
WH-0836,Warehouse_0836,Loc_WH-0836_Hue,Hue,Vietnam,Manager_0036,0600000836,warehouse0836@example.com,10475,2658,retail,inactive,demo_data
WH-0837,Warehouse_0837,Loc_WH-0837_NhaTrang,NhaTrang,Vietnam,Manager_0037,0600000837,warehouse0837@example.com,11700,1129,main,maintenance,demo_data
WH-0838,Warehouse_0838,Loc_WH-0838_VungTau,VungTau,Vietnam,Manager_0038,0600000838,warehouse0838@example.com,1485,280,regional,active,demo_data
WH-0839,Warehouse_0839,Loc_WH-0839_BinhDuong,BinhDuong,Vietnam,Manager_0039,0600000839,warehouse0839@example.com,19554,14073,distribution,inactive,demo_data
WH-0840,Warehouse_0840,Loc_WH-0840_BacNinh,BacNinh,Vietnam,Manager_0040,0600000840,warehouse0840@example.com,19916,8649,retail,maintenance,demo_data
WH-0841,Warehouse_0841,Loc_WH-0841_HaNoi,HaNoi,Vietnam,Manager_0001,0600000841,warehouse0841@example.com,18369,377,main,active,demo_data
WH-0842,Warehouse_0842,Loc_WH-0842_HoChiMinh,HoChiMinh,Vietnam,Manager_0002,0600000842,warehouse0842@example.com,13448,10582,regional,inactive,demo_data
WH-0843,Warehouse_0843,Loc_WH-0843_DaNang,DaNang,Vietnam,Manager_0003,0600000843,warehouse0843@example.com,9499,4911,distribution,maintenance,demo_data
WH-0844,Warehouse_0844,Loc_WH-0844_HaiPhong,HaiPhong,Vietnam,Manager_0004,0600000844,warehouse0844@example.com,4062,931,retail,active,demo_data
WH-0845,Warehouse_0845,Loc_WH-0845_CanTho,CanTho,Vietnam,Manager_0005,0600000845,warehouse0845@example.com,2671,33,main,inactive,demo_data
WH-0846,Warehouse_0846,Loc_WH-0846_Hue,Hue,Vietnam,Manager_0006,0600000846,warehouse0846@example.com,9296,1604,regional,maintenance,demo_data
WH-0847,Warehouse_0847,Loc_WH-0847_NhaTrang,NhaTrang,Vietnam,Manager_0007,0600000847,warehouse0847@example.com,13053,7241,distribution,active,demo_data
WH-0848,Warehouse_0848,Loc_WH-0848_VungTau,VungTau,Vietnam,Manager_0008,0600000848,warehouse0848@example.com,12535,9800,retail,inactive,demo_data
WH-0849,Warehouse_0849,Loc_WH-0849_BinhDuong,BinhDuong,Vietnam,Manager_0009,0600000849,warehouse0849@example.com,677,568,main,maintenance,demo_data
WH-0850,Warehouse_0850,Loc_WH-0850_BacNinh,BacNinh,Vietnam,Manager_0010,0600000850,warehouse0850@example.com,5922,1855,regional,active,demo_data
WH-0851,Warehouse_0851,Loc_WH-0851_HaNoi,HaNoi,Vietnam,Manager_0011,0600000851,warehouse0851@example.com,15406,9421,distribution,inactive,demo_data
WH-0852,Warehouse_0852,Loc_WH-0852_HoChiMinh,HoChiMinh,Vietnam,Manager_0012,0600000852,warehouse0852@example.com,14585,2873,retail,maintenance,demo_data
WH-0853,Warehouse_0853,Loc_WH-0853_DaNang,DaNang,Vietnam,Manager_0013,0600000853,warehouse0853@example.com,11447,1522,main,active,demo_data
WH-0854,Warehouse_0854,Loc_WH-0854_HaiPhong,HaiPhong,Vietnam,Manager_0014,0600000854,warehouse0854@example.com,10869,2847,regional,inactive,demo_data
WH-0855,Warehouse_0855,Loc_WH-0855_CanTho,CanTho,Vietnam,Manager_0015,0600000855,warehouse0855@example.com,19733,13864,distribution,maintenance,demo_data
WH-0856,Warehouse_0856,Loc_WH-0856_Hue,Hue,Vietnam,Manager_0016,0600000856,warehouse0856@example.com,4044,3514,retail,active,demo_data
WH-0857,Warehouse_0857,Loc_WH-0857_NhaTrang,NhaTrang,Vietnam,Manager_0017,0600000857,warehouse0857@example.com,15909,14794,main,inactive,demo_data
WH-0858,Warehouse_0858,Loc_WH-0858_VungTau,VungTau,Vietnam,Manager_0018,0600000858,warehouse0858@example.com,18982,13872,regional,maintenance,demo_data
WH-0859,Warehouse_0859,Loc_WH-0859_BinhDuong,BinhDuong,Vietnam,Manager_0019,0600000859,warehouse0859@example.com,13209,7988,distribution,active,demo_data
WH-0860,Warehouse_0860,Loc_WH-0860_BacNinh,BacNinh,Vietnam,Manager_0020,0600000860,warehouse0860@example.com,11114,9408,retail,inactive,demo_data
WH-0861,Warehouse_0861,Loc_WH-0861_HaNoi,HaNoi,Vietnam,Manager_0021,0600000861,warehouse0861@example.com,10998,2536,main,maintenance,demo_data
WH-0862,Warehouse_0862,Loc_WH-0862_HoChiMinh,HoChiMinh,Vietnam,Manager_0022,0600000862,warehouse0862@example.com,16453,3007,regional,active,demo_data
WH-0863,Warehouse_0863,Loc_WH-0863_DaNang,DaNang,Vietnam,Manager_0023,0600000863,warehouse0863@example.com,15604,4067,distribution,inactive,demo_data
WH-0864,Warehouse_0864,Loc_WH-0864_HaiPhong,HaiPhong,Vietnam,Manager_0024,0600000864,warehouse0864@example.com,4458,3052,retail,maintenance,demo_data
WH-0865,Warehouse_0865,Loc_WH-0865_CanTho,CanTho,Vietnam,Manager_0025,0600000865,warehouse0865@example.com,12875,8111,main,active,demo_data
WH-0866,Warehouse_0866,Loc_WH-0866_Hue,Hue,Vietnam,Manager_0026,0600000866,warehouse0866@example.com,11621,10706,regional,inactive,demo_data
WH-0867,Warehouse_0867,Loc_WH-0867_NhaTrang,NhaTrang,Vietnam,Manager_0027,0600000867,warehouse0867@example.com,17251,10945,distribution,maintenance,demo_data
WH-0868,Warehouse_0868,Loc_WH-0868_VungTau,VungTau,Vietnam,Manager_0028,0600000868,warehouse0868@example.com,15456,2169,retail,active,demo_data
WH-0869,Warehouse_0869,Loc_WH-0869_BinhDuong,BinhDuong,Vietnam,Manager_0029,0600000869,warehouse0869@example.com,18855,1398,main,inactive,demo_data
WH-0870,Warehouse_0870,Loc_WH-0870_BacNinh,BacNinh,Vietnam,Manager_0030,0600000870,warehouse0870@example.com,16204,2737,regional,maintenance,demo_data
WH-0871,Warehouse_0871,Loc_WH-0871_HaNoi,HaNoi,Vietnam,Manager_0031,0600000871,warehouse0871@example.com,3011,2753,distribution,active,demo_data
WH-0872,Warehouse_0872,Loc_WH-0872_HoChiMinh,HoChiMinh,Vietnam,Manager_0032,0600000872,warehouse0872@example.com,12772,9495,retail,inactive,demo_data
WH-0873,Warehouse_0873,Loc_WH-0873_DaNang,DaNang,Vietnam,Manager_0033,0600000873,warehouse0873@example.com,5473,395,main,maintenance,demo_data
WH-0874,Warehouse_0874,Loc_WH-0874_HaiPhong,HaiPhong,Vietnam,Manager_0034,0600000874,warehouse0874@example.com,18045,6542,regional,active,demo_data
WH-0875,Warehouse_0875,Loc_WH-0875_CanTho,CanTho,Vietnam,Manager_0035,0600000875,warehouse0875@example.com,5675,4888,distribution,inactive,demo_data
WH-0876,Warehouse_0876,Loc_WH-0876_Hue,Hue,Vietnam,Manager_0036,0600000876,warehouse0876@example.com,12349,283,retail,maintenance,demo_data
WH-0877,Warehouse_0877,Loc_WH-0877_NhaTrang,NhaTrang,Vietnam,Manager_0037,0600000877,warehouse0877@example.com,19096,17242,main,active,demo_data
WH-0878,Warehouse_0878,Loc_WH-0878_VungTau,VungTau,Vietnam,Manager_0038,0600000878,warehouse0878@example.com,15197,11763,regional,inactive,demo_data
WH-0879,Warehouse_0879,Loc_WH-0879_BinhDuong,BinhDuong,Vietnam,Manager_0039,0600000879,warehouse0879@example.com,676,585,distribution,maintenance,demo_data
WH-0880,Warehouse_0880,Loc_WH-0880_BacNinh,BacNinh,Vietnam,Manager_0040,0600000880,warehouse0880@example.com,19437,15795,retail,active,demo_data
WH-0881,Warehouse_0881,Loc_WH-0881_HaNoi,HaNoi,Vietnam,Manager_0001,0600000881,warehouse0881@example.com,6864,2158,main,inactive,demo_data
WH-0882,Warehouse_0882,Loc_WH-0882_HoChiMinh,HoChiMinh,Vietnam,Manager_0002,0600000882,warehouse0882@example.com,19823,8266,regional,maintenance,demo_data
WH-0883,Warehouse_0883,Loc_WH-0883_DaNang,DaNang,Vietnam,Manager_0003,0600000883,warehouse0883@example.com,6256,1795,distribution,active,demo_data
WH-0884,Warehouse_0884,Loc_WH-0884_HaiPhong,HaiPhong,Vietnam,Manager_0004,0600000884,warehouse0884@example.com,9307,6527,retail,inactive,demo_data
WH-0885,Warehouse_0885,Loc_WH-0885_CanTho,CanTho,Vietnam,Manager_0005,0600000885,warehouse0885@example.com,15870,2808,main,maintenance,demo_data
WH-0886,Warehouse_0886,Loc_WH-0886_Hue,Hue,Vietnam,Manager_0006,0600000886,warehouse0886@example.com,10323,5806,regional,active,demo_data
WH-0887,Warehouse_0887,Loc_WH-0887_NhaTrang,NhaTrang,Vietnam,Manager_0007,0600000887,warehouse0887@example.com,12006,1067,distribution,inactive,demo_data
WH-0888,Warehouse_0888,Loc_WH-0888_VungTau,VungTau,Vietnam,Manager_0008,0600000888,warehouse0888@example.com,4367,3820,retail,maintenance,demo_data
WH-0889,Warehouse_0889,Loc_WH-0889_BinhDuong,BinhDuong,Vietnam,Manager_0009,0600000889,warehouse0889@example.com,14525,1007,main,active,demo_data
WH-0890,Warehouse_0890,Loc_WH-0890_BacNinh,BacNinh,Vietnam,Manager_0010,0600000890,warehouse0890@example.com,1569,1078,regional,inactive,demo_data
WH-0891,Warehouse_0891,Loc_WH-0891_HaNoi,HaNoi,Vietnam,Manager_0011,0600000891,warehouse0891@example.com,3911,495,distribution,maintenance,demo_data
WH-0892,Warehouse_0892,Loc_WH-0892_HoChiMinh,HoChiMinh,Vietnam,Manager_0012,0600000892,warehouse0892@example.com,8036,1756,retail,active,demo_data
WH-0893,Warehouse_0893,Loc_WH-0893_DaNang,DaNang,Vietnam,Manager_0013,0600000893,warehouse0893@example.com,7887,5409,main,inactive,demo_data
WH-0894,Warehouse_0894,Loc_WH-0894_HaiPhong,HaiPhong,Vietnam,Manager_0014,0600000894,warehouse0894@example.com,17875,15862,regional,maintenance,demo_data
WH-0895,Warehouse_0895,Loc_WH-0895_CanTho,CanTho,Vietnam,Manager_0015,0600000895,warehouse0895@example.com,3616,2087,distribution,active,demo_data
WH-0896,Warehouse_0896,Loc_WH-0896_Hue,Hue,Vietnam,Manager_0016,0600000896,warehouse0896@example.com,6087,2187,retail,inactive,demo_data
WH-0897,Warehouse_0897,Loc_WH-0897_NhaTrang,NhaTrang,Vietnam,Manager_0017,0600000897,warehouse0897@example.com,16420,59,main,maintenance,demo_data
WH-0898,Warehouse_0898,Loc_WH-0898_VungTau,VungTau,Vietnam,Manager_0018,0600000898,warehouse0898@example.com,2535,1707,regional,active,demo_data
WH-0899,Warehouse_0899,Loc_WH-0899_BinhDuong,BinhDuong,Vietnam,Manager_0019,0600000899,warehouse0899@example.com,19545,5799,distribution,inactive,demo_data
WH-0900,Warehouse_0900,Loc_WH-0900_BacNinh,BacNinh,Vietnam,Manager_0020,0600000900,warehouse0900@example.com,15336,1236,retail,maintenance,demo_data
WH-0901,Warehouse_0901,Loc_WH-0901_HaNoi,HaNoi,Vietnam,Manager_0021,0600000901,warehouse0901@example.com,17292,14382,main,active,demo_data
WH-0902,Warehouse_0902,Loc_WH-0902_HoChiMinh,HoChiMinh,Vietnam,Manager_0022,0600000902,warehouse0902@example.com,3370,272,regional,inactive,demo_data
WH-0903,Warehouse_0903,Loc_WH-0903_DaNang,DaNang,Vietnam,Manager_0023,0600000903,warehouse0903@example.com,19754,12976,distribution,maintenance,demo_data
WH-0904,Warehouse_0904,Loc_WH-0904_HaiPhong,HaiPhong,Vietnam,Manager_0024,0600000904,warehouse0904@example.com,11201,2190,retail,active,demo_data
WH-0905,Warehouse_0905,Loc_WH-0905_CanTho,CanTho,Vietnam,Manager_0025,0600000905,warehouse0905@example.com,2183,323,main,inactive,demo_data
WH-0906,Warehouse_0906,Loc_WH-0906_Hue,Hue,Vietnam,Manager_0026,0600000906,warehouse0906@example.com,5742,3773,regional,maintenance,demo_data
WH-0907,Warehouse_0907,Loc_WH-0907_NhaTrang,NhaTrang,Vietnam,Manager_0027,0600000907,warehouse0907@example.com,5390,5300,distribution,active,demo_data
WH-0908,Warehouse_0908,Loc_WH-0908_VungTau,VungTau,Vietnam,Manager_0028,0600000908,warehouse0908@example.com,19619,19548,retail,inactive,demo_data
WH-0909,Warehouse_0909,Loc_WH-0909_BinhDuong,BinhDuong,Vietnam,Manager_0029,0600000909,warehouse0909@example.com,8244,8147,main,maintenance,demo_data
WH-0910,Warehouse_0910,Loc_WH-0910_BacNinh,BacNinh,Vietnam,Manager_0030,0600000910,warehouse0910@example.com,3383,179,regional,active,demo_data
WH-0911,Warehouse_0911,Loc_WH-0911_HaNoi,HaNoi,Vietnam,Manager_0031,0600000911,warehouse0911@example.com,1175,962,distribution,inactive,demo_data
WH-0912,Warehouse_0912,Loc_WH-0912_HoChiMinh,HoChiMinh,Vietnam,Manager_0032,0600000912,warehouse0912@example.com,5719,4339,retail,maintenance,demo_data
WH-0913,Warehouse_0913,Loc_WH-0913_DaNang,DaNang,Vietnam,Manager_0033,0600000913,warehouse0913@example.com,12872,407,main,active,demo_data
WH-0914,Warehouse_0914,Loc_WH-0914_HaiPhong,HaiPhong,Vietnam,Manager_0034,0600000914,warehouse0914@example.com,18138,11888,regional,inactive,demo_data
WH-0915,Warehouse_0915,Loc_WH-0915_CanTho,CanTho,Vietnam,Manager_0035,0600000915,warehouse0915@example.com,1453,28,distribution,maintenance,demo_data
WH-0916,Warehouse_0916,Loc_WH-0916_Hue,Hue,Vietnam,Manager_0036,0600000916,warehouse0916@example.com,8916,6144,retail,active,demo_data
WH-0917,Warehouse_0917,Loc_WH-0917_NhaTrang,NhaTrang,Vietnam,Manager_0037,0600000917,warehouse0917@example.com,7586,4590,main,inactive,demo_data
WH-0918,Warehouse_0918,Loc_WH-0918_VungTau,VungTau,Vietnam,Manager_0038,0600000918,warehouse0918@example.com,14999,4864,regional,maintenance,demo_data
WH-0919,Warehouse_0919,Loc_WH-0919_BinhDuong,BinhDuong,Vietnam,Manager_0039,0600000919,warehouse0919@example.com,12689,805,distribution,active,demo_data
WH-0920,Warehouse_0920,Loc_WH-0920_BacNinh,BacNinh,Vietnam,Manager_0040,0600000920,warehouse0920@example.com,6123,5714,retail,inactive,demo_data
WH-0921,Warehouse_0921,Loc_WH-0921_HaNoi,HaNoi,Vietnam,Manager_0001,0600000921,warehouse0921@example.com,14099,4525,main,maintenance,demo_data
WH-0922,Warehouse_0922,Loc_WH-0922_HoChiMinh,HoChiMinh,Vietnam,Manager_0002,0600000922,warehouse0922@example.com,13701,629,regional,active,demo_data
WH-0923,Warehouse_0923,Loc_WH-0923_DaNang,DaNang,Vietnam,Manager_0003,0600000923,warehouse0923@example.com,5382,761,distribution,inactive,demo_data
WH-0924,Warehouse_0924,Loc_WH-0924_HaiPhong,HaiPhong,Vietnam,Manager_0004,0600000924,warehouse0924@example.com,1913,143,retail,maintenance,demo_data
WH-0925,Warehouse_0925,Loc_WH-0925_CanTho,CanTho,Vietnam,Manager_0005,0600000925,warehouse0925@example.com,8265,7579,main,active,demo_data
WH-0926,Warehouse_0926,Loc_WH-0926_Hue,Hue,Vietnam,Manager_0006,0600000926,warehouse0926@example.com,11514,5998,regional,inactive,demo_data
WH-0927,Warehouse_0927,Loc_WH-0927_NhaTrang,NhaTrang,Vietnam,Manager_0007,0600000927,warehouse0927@example.com,4571,57,distribution,maintenance,demo_data
WH-0928,Warehouse_0928,Loc_WH-0928_VungTau,VungTau,Vietnam,Manager_0008,0600000928,warehouse0928@example.com,11838,4727,retail,active,demo_data
WH-0929,Warehouse_0929,Loc_WH-0929_BinhDuong,BinhDuong,Vietnam,Manager_0009,0600000929,warehouse0929@example.com,5737,2954,main,inactive,demo_data
WH-0930,Warehouse_0930,Loc_WH-0930_BacNinh,BacNinh,Vietnam,Manager_0010,0600000930,warehouse0930@example.com,846,225,regional,maintenance,demo_data
WH-0931,Warehouse_0931,Loc_WH-0931_HaNoi,HaNoi,Vietnam,Manager_0011,0600000931,warehouse0931@example.com,6320,1592,distribution,active,demo_data
WH-0932,Warehouse_0932,Loc_WH-0932_HoChiMinh,HoChiMinh,Vietnam,Manager_0012,0600000932,warehouse0932@example.com,16628,10071,retail,inactive,demo_data
WH-0933,Warehouse_0933,Loc_WH-0933_DaNang,DaNang,Vietnam,Manager_0013,0600000933,warehouse0933@example.com,13288,3850,main,maintenance,demo_data
WH-0934,Warehouse_0934,Loc_WH-0934_HaiPhong,HaiPhong,Vietnam,Manager_0014,0600000934,warehouse0934@example.com,8027,88,regional,active,demo_data
WH-0935,Warehouse_0935,Loc_WH-0935_CanTho,CanTho,Vietnam,Manager_0015,0600000935,warehouse0935@example.com,16495,10646,distribution,inactive,demo_data
WH-0936,Warehouse_0936,Loc_WH-0936_Hue,Hue,Vietnam,Manager_0016,0600000936,warehouse0936@example.com,8274,1649,retail,maintenance,demo_data
WH-0937,Warehouse_0937,Loc_WH-0937_NhaTrang,NhaTrang,Vietnam,Manager_0017,0600000937,warehouse0937@example.com,19661,9635,main,active,demo_data
WH-0938,Warehouse_0938,Loc_WH-0938_VungTau,VungTau,Vietnam,Manager_0018,0600000938,warehouse0938@example.com,5172,43,regional,inactive,demo_data
WH-0939,Warehouse_0939,Loc_WH-0939_BinhDuong,BinhDuong,Vietnam,Manager_0019,0600000939,warehouse0939@example.com,17614,9283,distribution,maintenance,demo_data
WH-0940,Warehouse_0940,Loc_WH-0940_BacNinh,BacNinh,Vietnam,Manager_0020,0600000940,warehouse0940@example.com,6587,6398,retail,active,demo_data
WH-0941,Warehouse_0941,Loc_WH-0941_HaNoi,HaNoi,Vietnam,Manager_0021,0600000941,warehouse0941@example.com,3644,2039,main,inactive,demo_data
WH-0942,Warehouse_0942,Loc_WH-0942_HoChiMinh,HoChiMinh,Vietnam,Manager_0022,0600000942,warehouse0942@example.com,11465,7095,regional,maintenance,demo_data
WH-0943,Warehouse_0943,Loc_WH-0943_DaNang,DaNang,Vietnam,Manager_0023,0600000943,warehouse0943@example.com,17889,15373,distribution,active,demo_data
WH-0944,Warehouse_0944,Loc_WH-0944_HaiPhong,HaiPhong,Vietnam,Manager_0024,0600000944,warehouse0944@example.com,10325,825,retail,inactive,demo_data
WH-0945,Warehouse_0945,Loc_WH-0945_CanTho,CanTho,Vietnam,Manager_0025,0600000945,warehouse0945@example.com,12103,3137,main,maintenance,demo_data
WH-0946,Warehouse_0946,Loc_WH-0946_Hue,Hue,Vietnam,Manager_0026,0600000946,warehouse0946@example.com,14192,106,regional,active,demo_data
WH-0947,Warehouse_0947,Loc_WH-0947_NhaTrang,NhaTrang,Vietnam,Manager_0027,0600000947,warehouse0947@example.com,19615,14684,distribution,inactive,demo_data
WH-0948,Warehouse_0948,Loc_WH-0948_VungTau,VungTau,Vietnam,Manager_0028,0600000948,warehouse0948@example.com,12393,12145,retail,maintenance,demo_data
WH-0949,Warehouse_0949,Loc_WH-0949_BinhDuong,BinhDuong,Vietnam,Manager_0029,0600000949,warehouse0949@example.com,5078,1880,main,active,demo_data
WH-0950,Warehouse_0950,Loc_WH-0950_BacNinh,BacNinh,Vietnam,Manager_0030,0600000950,warehouse0950@example.com,4417,2856,regional,inactive,demo_data
WH-0951,Warehouse_0951,Loc_WH-0951_HaNoi,HaNoi,Vietnam,Manager_0031,0600000951,warehouse0951@example.com,7863,5331,distribution,maintenance,demo_data
WH-0952,Warehouse_0952,Loc_WH-0952_HoChiMinh,HoChiMinh,Vietnam,Manager_0032,0600000952,warehouse0952@example.com,8725,6319,retail,active,demo_data
WH-0953,Warehouse_0953,Loc_WH-0953_DaNang,DaNang,Vietnam,Manager_0033,0600000953,warehouse0953@example.com,8852,8829,main,inactive,demo_data
WH-0954,Warehouse_0954,Loc_WH-0954_HaiPhong,HaiPhong,Vietnam,Manager_0034,0600000954,warehouse0954@example.com,9511,3021,regional,maintenance,demo_data
WH-0955,Warehouse_0955,Loc_WH-0955_CanTho,CanTho,Vietnam,Manager_0035,0600000955,warehouse0955@example.com,17068,9786,distribution,active,demo_data
WH-0956,Warehouse_0956,Loc_WH-0956_Hue,Hue,Vietnam,Manager_0036,0600000956,warehouse0956@example.com,1682,1560,retail,inactive,demo_data
WH-0957,Warehouse_0957,Loc_WH-0957_NhaTrang,NhaTrang,Vietnam,Manager_0037,0600000957,warehouse0957@example.com,12912,5163,main,maintenance,demo_data
WH-0958,Warehouse_0958,Loc_WH-0958_VungTau,VungTau,Vietnam,Manager_0038,0600000958,warehouse0958@example.com,12905,3192,regional,active,demo_data
WH-0959,Warehouse_0959,Loc_WH-0959_BinhDuong,BinhDuong,Vietnam,Manager_0039,0600000959,warehouse0959@example.com,7245,5367,distribution,inactive,demo_data
WH-0960,Warehouse_0960,Loc_WH-0960_BacNinh,BacNinh,Vietnam,Manager_0040,0600000960,warehouse0960@example.com,16659,2482,retail,maintenance,demo_data
WH-0961,Warehouse_0961,Loc_WH-0961_HaNoi,HaNoi,Vietnam,Manager_0001,0600000961,warehouse0961@example.com,13209,9683,main,active,demo_data
WH-0962,Warehouse_0962,Loc_WH-0962_HoChiMinh,HoChiMinh,Vietnam,Manager_0002,0600000962,warehouse0962@example.com,8056,1334,regional,inactive,demo_data
WH-0963,Warehouse_0963,Loc_WH-0963_DaNang,DaNang,Vietnam,Manager_0003,0600000963,warehouse0963@example.com,3913,209,distribution,maintenance,demo_data
WH-0964,Warehouse_0964,Loc_WH-0964_HaiPhong,HaiPhong,Vietnam,Manager_0004,0600000964,warehouse0964@example.com,11364,3961,retail,active,demo_data
WH-0965,Warehouse_0965,Loc_WH-0965_CanTho,CanTho,Vietnam,Manager_0005,0600000965,warehouse0965@example.com,16236,8863,main,inactive,demo_data
WH-0966,Warehouse_0966,Loc_WH-0966_Hue,Hue,Vietnam,Manager_0006,0600000966,warehouse0966@example.com,2954,2516,regional,maintenance,demo_data
WH-0967,Warehouse_0967,Loc_WH-0967_NhaTrang,NhaTrang,Vietnam,Manager_0007,0600000967,warehouse0967@example.com,17846,15081,distribution,active,demo_data
WH-0968,Warehouse_0968,Loc_WH-0968_VungTau,VungTau,Vietnam,Manager_0008,0600000968,warehouse0968@example.com,6259,3661,retail,inactive,demo_data
WH-0969,Warehouse_0969,Loc_WH-0969_BinhDuong,BinhDuong,Vietnam,Manager_0009,0600000969,warehouse0969@example.com,18694,8317,main,maintenance,demo_data
WH-0970,Warehouse_0970,Loc_WH-0970_BacNinh,BacNinh,Vietnam,Manager_0010,0600000970,warehouse0970@example.com,19557,15255,regional,active,demo_data
WH-0971,Warehouse_0971,Loc_WH-0971_HaNoi,HaNoi,Vietnam,Manager_0011,0600000971,warehouse0971@example.com,643,356,distribution,inactive,demo_data
WH-0972,Warehouse_0972,Loc_WH-0972_HoChiMinh,HoChiMinh,Vietnam,Manager_0012,0600000972,warehouse0972@example.com,9421,8223,retail,maintenance,demo_data
WH-0973,Warehouse_0973,Loc_WH-0973_DaNang,DaNang,Vietnam,Manager_0013,0600000973,warehouse0973@example.com,10041,874,main,active,demo_data
WH-0974,Warehouse_0974,Loc_WH-0974_HaiPhong,HaiPhong,Vietnam,Manager_0014,0600000974,warehouse0974@example.com,4487,541,regional,inactive,demo_data
WH-0975,Warehouse_0975,Loc_WH-0975_CanTho,CanTho,Vietnam,Manager_0015,0600000975,warehouse0975@example.com,6227,3132,distribution,maintenance,demo_data
WH-0976,Warehouse_0976,Loc_WH-0976_Hue,Hue,Vietnam,Manager_0016,0600000976,warehouse0976@example.com,16159,1286,retail,active,demo_data
WH-0977,Warehouse_0977,Loc_WH-0977_NhaTrang,NhaTrang,Vietnam,Manager_0017,0600000977,warehouse0977@example.com,6890,6469,main,inactive,demo_data
WH-0978,Warehouse_0978,Loc_WH-0978_VungTau,VungTau,Vietnam,Manager_0018,0600000978,warehouse0978@example.com,11006,10867,regional,maintenance,demo_data
WH-0979,Warehouse_0979,Loc_WH-0979_BinhDuong,BinhDuong,Vietnam,Manager_0019,0600000979,warehouse0979@example.com,4944,1711,distribution,active,demo_data
WH-0980,Warehouse_0980,Loc_WH-0980_BacNinh,BacNinh,Vietnam,Manager_0020,0600000980,warehouse0980@example.com,2441,1569,retail,inactive,demo_data
WH-0981,Warehouse_0981,Loc_WH-0981_HaNoi,HaNoi,Vietnam,Manager_0021,0600000981,warehouse0981@example.com,9671,8795,main,maintenance,demo_data
WH-0982,Warehouse_0982,Loc_WH-0982_HoChiMinh,HoChiMinh,Vietnam,Manager_0022,0600000982,warehouse0982@example.com,9398,3285,regional,active,demo_data
WH-0983,Warehouse_0983,Loc_WH-0983_DaNang,DaNang,Vietnam,Manager_0023,0600000983,warehouse0983@example.com,9483,5882,distribution,inactive,demo_data
WH-0984,Warehouse_0984,Loc_WH-0984_HaiPhong,HaiPhong,Vietnam,Manager_0024,0600000984,warehouse0984@example.com,11045,10585,retail,maintenance,demo_data
WH-0985,Warehouse_0985,Loc_WH-0985_CanTho,CanTho,Vietnam,Manager_0025,0600000985,warehouse0985@example.com,15021,4430,main,active,demo_data
WH-0986,Warehouse_0986,Loc_WH-0986_Hue,Hue,Vietnam,Manager_0026,0600000986,warehouse0986@example.com,1168,764,regional,inactive,demo_data
WH-0987,Warehouse_0987,Loc_WH-0987_NhaTrang,NhaTrang,Vietnam,Manager_0027,0600000987,warehouse0987@example.com,771,564,distribution,maintenance,demo_data
WH-0988,Warehouse_0988,Loc_WH-0988_VungTau,VungTau,Vietnam,Manager_0028,0600000988,warehouse0988@example.com,18688,3299,retail,active,demo_data
WH-0989,Warehouse_0989,Loc_WH-0989_BinhDuong,BinhDuong,Vietnam,Manager_0029,0600000989,warehouse0989@example.com,10729,2644,main,inactive,demo_data
WH-0990,Warehouse_0990,Loc_WH-0990_BacNinh,BacNinh,Vietnam,Manager_0030,0600000990,warehouse0990@example.com,13317,6776,regional,maintenance,demo_data
WH-0991,Warehouse_0991,Loc_WH-0991_HaNoi,HaNoi,Vietnam,Manager_0031,0600000991,warehouse0991@example.com,11719,17,distribution,active,demo_data
WH-0992,Warehouse_0992,Loc_WH-0992_HoChiMinh,HoChiMinh,Vietnam,Manager_0032,0600000992,warehouse0992@example.com,9510,8662,retail,inactive,demo_data
WH-0993,Warehouse_0993,Loc_WH-0993_DaNang,DaNang,Vietnam,Manager_0033,0600000993,warehouse0993@example.com,10108,5135,main,maintenance,demo_data
WH-0994,Warehouse_0994,Loc_WH-0994_HaiPhong,HaiPhong,Vietnam,Manager_0034,0600000994,warehouse0994@example.com,18547,12559,regional,active,demo_data
WH-0995,Warehouse_0995,Loc_WH-0995_CanTho,CanTho,Vietnam,Manager_0035,0600000995,warehouse0995@example.com,6893,3835,distribution,inactive,demo_data
WH-0996,Warehouse_0996,Loc_WH-0996_Hue,Hue,Vietnam,Manager_0036,0600000996,warehouse0996@example.com,13356,6716,retail,maintenance,demo_data
WH-0997,Warehouse_0997,Loc_WH-0997_NhaTrang,NhaTrang,Vietnam,Manager_0037,0600000997,warehouse0997@example.com,15690,15667,main,active,demo_data
WH-0998,Warehouse_0998,Loc_WH-0998_VungTau,VungTau,Vietnam,Manager_0038,0600000998,warehouse0998@example.com,8385,7176,regional,inactive,demo_data
WH-0999,Warehouse_0999,Loc_WH-0999_BinhDuong,BinhDuong,Vietnam,Manager_0039,0600000999,warehouse0999@example.com,5065,3144,distribution,maintenance,demo_data
WH-1000,Warehouse_1000,Loc_WH-1000_BacNinh,BacNinh,Vietnam,Manager_0040,0600001000,warehouse1000@example.com,12155,4987,retail,active,demo_data
